CompanyName,DeliveryTypes,Address,State,City,Zipcode
UPS,Seven Day,6710 Sheridan Crossing,DC,Washington,20503
FEDEX,One Hour,244 Birchwood Drive,NC,Charlotte,28210
USPS,One Hour,647 Farragut Parkway,MS,Jackson,39296
UPS,Seven Day,27 Duke Lane,VA,Richmond,23277
DHL,One Day,9 Hollow Ridge Parkway,KY,Lexington,40515
UPS,Seven Day,0705 Moose Way,NY,Hicksville,11854
DHL,One Hour,84 Comanche Road,NY,Bronx,10469
USPS,One Day,12 Hoard Court,FL,Hialeah,33018
FEDEX,Three Day,360 Weeping Birch Circle,MN,Saint Paul,55127
DHL,One Hour,528 Bayside Way,WI,Milwaukee,53220
UPS,One Hour,89427 Pine View Center,IN,Crawfordsville,47937
FEDEX,Seven Day,16408 Old Gate Circle,ME,Portland,4109
USPS,Three Day,2076 Paget Lane,WA,Tacoma,98411
UPS,One Day,341 Graceland Court,FL,Saint Petersburg,33715
UPS,One Day,4 Amoth Junction,IA,Davenport,52804
USPS,One Hour,59 Northland Parkway,TN,Nashville,37220
UPS,Seven Day,5418 Hansons Center,MS,Columbus,39705
FEDEX,Seven Day,54077 Warrior Parkway,FL,Tallahassee,32304
USPS,One Day,55344 Pleasure Crossing,CA,San Francisco,94142
FEDEX,One Hour,29 Elmside Court,TX,El Paso,79984
DHL,Seven Day,0444 Golf View Parkway,FL,Zephyrhills,33543
USPS,Seven Day,3 Esker Court,MD,Silver Spring,20918
USPS,One Hour,56976 Sunbrook Center,CA,Los Angeles,90060
FEDEX,One Day,011 Colorado Court,IL,Peoria,61656
USPS,Three Day,96 American Trail,CA,Fresno,93740
UPS,One Hour,4 Pond Crossing,MI,Grand Rapids,49518
FEDEX,One Day,7 Oriole Parkway,IA,Des Moines,50393
USPS,One Hour,52315 3rd Point,FL,Tampa,33673
DHL,Three Day,77486 Riverside Hill,AR,Fort Smith,72905
DHL,One Hour,81786 Bultman Alley,TX,Dallas,75358
UPS,Three Day,71097 Rockefeller Center,SC,Columbia,29220
DHL,One Day,627 Clemons Alley,MA,Brockton,2305
DHL,One Hour,72687 Duke Center,NC,Fayetteville,28314
DHL,One Hour,134 Independence Pass,MS,Meridian,39305
USPS,One Hour,1908 Logan Pass,CA,Stockton,95298
DHL,One Hour,389 Ohio Court,LA,Shreveport,71161
USPS,One Day,7 Meadow Vale Street,DC,Washington,20220
DHL,Three Day,96005 Straubel Street,IN,Terre Haute,47812
USPS,Three Day,4222 Bobwhite Drive,MI,Ann Arbor,48107
DHL,One Hour,8197 Talmadge Terrace,CA,Riverside,92519
USPS,One Day,8070 Londonderry Plaza,CA,San Francisco,94164
USPS,One Day,6661 Hoard Point,TX,San Antonio,78240
UPS,Three Day,820 Emmet Center,CA,Sacramento,95833
UPS,Three Day,21 Sachs Point,UT,Salt Lake City,84115
USPS,One Hour,2150 Bellgrove Parkway,CO,Aurora,80044
DHL,One Day,3616 Burrows Drive,FL,West Palm Beach,33416
DHL,Three Day,9 Dixon Circle,SC,Anderson,29625
DHL,One Hour,17 Carpenter Circle,IL,Chicago,60646
UPS,Three Day,5 Lighthouse Bay Court,PA,Philadelphia,19109
UPS,One Day,3494 Paget Point,TX,Round Rock,78682
USPS,Seven Day,541 Schiller Point,FL,Tampa,33610
DHL,One Hour,58471 Beilfuss Point,CA,Corona,92883
UPS,Three Day,8 Sloan Hill,FL,Port Charlotte,33954
FEDEX,One Hour,7004 Annamark Plaza,MO,Kansas City,64144
UPS,One Day,3 Anzinger Plaza,NC,Charlotte,28247
USPS,One Hour,306 Dayton Terrace,FL,Jacksonville,32225
USPS,One Hour,3 Killdeer Junction,AZ,Tucson,85720
UPS,Seven Day,921 Eliot Center,CA,San Diego,92121
USPS,Seven Day,137 Dryden Lane,CO,Colorado Springs,80925
UPS,Seven Day,3958 Helena Pass,SC,Florence,29505
UPS,Three Day,38864 Kropf Junction,GA,Macon,31205
USPS,Seven Day,36247 Bluejay Place,CA,San Bernardino,92405
FEDEX,One Day,250 Manitowish Avenue,FL,West Palm Beach,33421
UPS,One Day,921 Novick Alley,MN,Saint Paul,55127
DHL,One Hour,5 Cordelia Pass,LA,New Orleans,70165
UPS,Three Day,2422 Buhler Plaza,FL,Tallahassee,32309
USPS,One Hour,6 New Castle Alley,TX,Dallas,75287
UPS,One Hour,90922 Oneill Road,CA,Los Angeles,90081
USPS,Seven Day,7 Alpine Point,KS,Shawnee Mission,66205
FEDEX,Three Day,9 Dayton Junction,KY,Frankfort,40618
DHL,One Day,7 La Follette Lane,TX,Houston,77206
FEDEX,One Hour,82 Eliot Lane,GA,Lawrenceville,30045
UPS,Three Day,3888 Sutteridge Hill,VA,Ashburn,22093
FEDEX,Three Day,0302 Heath Plaza,OH,Cincinnati,45213
DHL,One Hour,5639 Buena Vista Pass,NY,Buffalo,14220
USPS,Seven Day,851 Golf Course Road,VA,Alexandria,22313
USPS,One Day,797 Northland Alley,MS,Meridian,39305
USPS,Seven Day,17902 Garrison Pass,PA,Philadelphia,19191
DHL,One Hour,846 Summit Court,VA,Ashburn,22093
FEDEX,Three Day,5932 Vermont Alley,TX,Houston,77060
USPS,Seven Day,1852 Hansons Court,CA,Long Beach,90847
UPS,Three Day,013 Delladonna Junction,CO,Boulder,80310
UPS,Three Day,5598 Mccormick Drive,PA,New Castle,16107
FEDEX,One Hour,3467 Dwight Lane,LA,New Orleans,70124
DHL,One Hour,88728 Doe Crossing Alley,OH,Toledo,43615
DHL,One Hour,14604 Corscot Place,FL,Pensacola,32575
UPS,One Day,5033 Colorado Junction,CA,Oakland,94616
FEDEX,Three Day,0288 Rowland Terrace,KY,Louisville,40225
FEDEX,Three Day,8047 Merry Street,FL,Pensacola,32511
USPS,One Day,5 Moose Trail,VA,Norfolk,23520
UPS,One Hour,517 Rockefeller Park,MO,Kansas City,64144
UPS,One Day,90 Paget Court,MO,Kansas City,64179
FEDEX,Seven Day,8 Porter Alley,MN,Young America,55551
DHL,One Day,19 Spohn Pass,NV,Las Vegas,89140
FEDEX,One Day,10 Goodland Park,NC,Charlotte,28278
DHL,Three Day,59 Oriole Drive,CA,Fresno,93740
USPS,Three Day,26 Merry Pass,SD,Sioux Falls,57110
USPS,Three Day,28884 Waxwing Place,CA,San Francisco,94105
UPS,One Hour,27 Paget Crossing,NC,Raleigh,27610
USPS,Seven Day,49336 Northridge Terrace,CA,San Diego,92132
DHL,Seven Day,83948 Jenifer Trail,FL,North Port,34290
UPS,One Day,7 Cordelia Court,AL,Montgomery,36109
UPS,One Hour,11 Shoshone Way,MO,Saint Louis,63158
USPS,One Hour,039 Coleman Junction,GA,Decatur,30033
DHL,One Day,901 Pepper Wood Alley,AZ,Scottsdale,85271
USPS,One Hour,355 Ryan Trail,CO,Denver,80241
UPS,Seven Day,937 Pond Plaza,TX,Austin,78769
USPS,Seven Day,99 Arrowood Circle,CO,Colorado Springs,80925
FEDEX,Three Day,38836 Grayhawk Way,WA,Seattle,98109
UPS,Three Day,7 Declaration Trail,NV,Las Vegas,89178
FEDEX,Seven Day,782 Red Cloud Hill,IL,Chicago,60674
DHL,Three Day,61726 Anniversary Hill,MA,Worcester,1610
UPS,Seven Day,72327 Hermina Court,FL,Fort Lauderdale,33315
UPS,Three Day,40 Debra Point,CA,Anaheim,92805
USPS,One Hour,36 Ryan Court,CA,Inglewood,90398
UPS,One Day,19248 Shasta Park,MN,Minneapolis,55446
DHL,Three Day,51 Pine View Park,FL,Sarasota,34276
USPS,Three Day,89432 Farwell Drive,VA,Chesapeake,23324
FEDEX,Three Day,2 Little Fleur Place,MA,New Bedford,2745
USPS,Seven Day,20184 Donald Way,FL,Boca Raton,33432
DHL,One Hour,30 Carpenter Court,TX,Houston,77276
UPS,One Day,414 Forest Dale Alley,OH,Cleveland,44118
USPS,One Day,0 Ramsey Place,CA,Sacramento,94207
USPS,One Hour,81 Red Cloud Center,AK,Anchorage,99512
UPS,One Day,919 Crownhardt Avenue,MS,Jackson,39216
FEDEX,One Day,24 Clarendon Court,CT,New Haven,6520
DHL,One Day,195 Oakridge Alley,NE,Omaha,68144
UPS,Three Day,1 Bartelt Trail,GA,Columbus,31914
DHL,Three Day,90 Judy Avenue,VA,Richmond,23220
FEDEX,Seven Day,355 Hagan Circle,NC,Durham,27710
FEDEX,One Day,0802 Loftsgordon Trail,MO,Kansas City,64136
USPS,Seven Day,73809 Rusk Street,NV,Las Vegas,89110
DHL,Three Day,46514 Utah Way,IL,Naperville,60567
UPS,One Hour,492 Almo Point,FL,West Palm Beach,33416
UPS,Three Day,7201 Twin Pines Drive,TN,Knoxville,37995
USPS,One Hour,96 Heffernan Junction,MN,Saint Paul,55108
USPS,Three Day,46382 Roxbury Lane,OH,Akron,44393
USPS,One Day,36711 Artisan Park,NC,Charlotte,28289
USPS,Three Day,906 Birchwood Circle,TX,Tyler,75799
FEDEX,One Day,56584 2nd Way,MI,Lansing,48919
FEDEX,Seven Day,2 Mccormick Trail,KS,Wichita,67236
USPS,Three Day,49 Monument Junction,AZ,Phoenix,85072
FEDEX,One Hour,3 Hooker Avenue,NY,Buffalo,14215
FEDEX,One Day,01647 Melody Park,UT,Salt Lake City,84130
USPS,Seven Day,8 Reindahl Terrace,NY,Brooklyn,11220
DHL,Three Day,9595 Eastlawn Lane,IA,Davenport,52809
FEDEX,Three Day,4781 Stephen Avenue,NC,Charlotte,28220
UPS,One Hour,620 Weeping Birch Street,CA,Oxnard,93034
UPS,One Day,4 Mayfield Pass,MI,Detroit,48295
USPS,Seven Day,5 Saint Paul Drive,TX,Houston,77266
USPS,Three Day,5403 Truax Circle,IN,Indianapolis,46278
USPS,One Hour,0 Cody Crossing,CA,Concord,94522
FEDEX,Seven Day,57201 Veith Terrace,IL,Peoria,61640
UPS,One Hour,3370 Merrick Junction,WV,Charleston,25356
FEDEX,One Hour,29862 Springview Point,MD,Baltimore,21281
FEDEX,Seven Day,75012 Porter Hill,LA,Baton Rouge,70815
DHL,Three Day,5 Petterle Way,WA,Seattle,98148
FEDEX,Three Day,527 Menomonie Point,VA,Richmond,23293
USPS,One Day,2785 Elka Alley,PA,Erie,16550
UPS,One Hour,4612 Sullivan Street,OK,Tulsa,74149
USPS,One Day,16288 Fisk Alley,IL,Springfield,62711
DHL,Three Day,625 Stephen Plaza,CA,Corona,92883
UPS,One Hour,43 8th Avenue,TX,Houston,77050
DHL,One Day,30 Waywood Place,NY,Albany,12227
FEDEX,One Hour,7697 Thierer Park,NC,Wilmington,28410
FEDEX,Seven Day,1865 Bellgrove Avenue,WA,Lakewood,98498
DHL,Seven Day,22606 Granby Road,CO,Colorado Springs,80940
UPS,Seven Day,24 La Follette Crossing,CA,San Jose,95108
FEDEX,One Day,421 Morningstar Alley,KS,Shawnee Mission,66286
FEDEX,One Hour,5676 Del Sol Alley,WV,Morgantown,26505
USPS,Seven Day,1 Ridgeway Crossing,DC,Washington,20022
USPS,One Hour,1 Crescent Oaks Terrace,CT,Hartford,6140
DHL,Seven Day,17 Eastwood Park,GA,Atlanta,30316
USPS,Seven Day,7902 Main Alley,LA,Lake Charles,70607
UPS,One Hour,893 Messerschmidt Drive,CA,San Diego,92132
FEDEX,One Day,93621 Bultman Street,CA,Modesto,95354
USPS,Seven Day,58 Rockefeller Lane,WA,Tacoma,98411
FEDEX,One Day,849 Homewood Alley,NJ,Paterson,7505
DHL,One Hour,12685 Raven Place,CA,Fresno,93762
FEDEX,Seven Day,5889 Bonner Terrace,CO,Denver,80235
DHL,Three Day,70 Goodland Trail,NM,Las Cruces,88006
FEDEX,One Hour,374 Lake View Way,MS,Jackson,39296
DHL,Seven Day,9 Elka Hill,CO,Denver,80249
FEDEX,One Day,16112 Upham Parkway,HI,Honolulu,96805
FEDEX,One Day,8 Quincy Crossing,GA,Athens,30610
UPS,Seven Day,76 Corscot Park,VA,Lynchburg,24515
USPS,Three Day,66 Cherokee Point,PA,Erie,16505
USPS,One Day,01 Clarendon Plaza,PA,Lancaster,17605
DHL,One Day,49720 Waywood Way,CO,Denver,80299
UPS,One Hour,85 Hagan Park,AR,North Little Rock,72199
USPS,Seven Day,51195 Acker Park,NC,Winston Salem,27116
USPS,Three Day,662 Transport Terrace,TX,Austin,78703
FEDEX,Three Day,38 Monterey Park,CA,Stockton,95205
USPS,One Hour,86933 Hanson Circle,TX,Conroe,77305
DHL,Seven Day,31 8th Street,LA,Shreveport,71166
USPS,Seven Day,20536 Moland Lane,DC,Washington,20409
UPS,One Day,6337 Rieder Avenue,FL,Zephyrhills,33543
FEDEX,One Day,29751 Bunting Junction,VA,Richmond,23203
DHL,One Day,640 Lakewood Gardens Road,IL,Schaumburg,60193
DHL,One Day,72 Melody Trail,VA,Vienna,22184
USPS,One Hour,53760 Chinook Street,CA,Los Angeles,90020
DHL,Seven Day,7 Ruskin Park,OH,Cincinnati,45238
USPS,One Day,44413 Canary Terrace,OK,Tulsa,74103
USPS,One Day,990 Bartillon Center,NM,Albuquerque,87105
DHL,Three Day,61641 Dawn Trail,ID,Idaho Falls,83405
USPS,Seven Day,8706 Drewry Trail,OH,Dayton,45426
USPS,One Hour,7436 Westridge Way,AL,Birmingham,35220
FEDEX,Three Day,605 Hagan Drive,OH,Cincinnati,45271
DHL,Seven Day,1 Hovde Trail,OH,Columbus,43268
USPS,One Hour,2 Kensington Hill,UT,Salt Lake City,84145
FEDEX,Three Day,1223 Loeprich Crossing,TX,Dallas,75358
USPS,One Hour,7 Ronald Regan Terrace,NE,Omaha,68117
DHL,Three Day,37395 Holmberg Circle,CA,Santa Ana,92725
FEDEX,Seven Day,868 Waubesa Circle,LA,Baton Rouge,70820
DHL,Three Day,04 Fuller Alley,FL,Naples,34114
DHL,Three Day,089 Mendota Trail,FL,Boca Raton,33487
USPS,Three Day,1 Tennessee Avenue,PA,Philadelphia,19109
UPS,One Hour,1 Arkansas Center,NC,Wilmington,28405
FEDEX,One Day,0828 Crest Line Place,MI,Flint,48550
DHL,One Hour,369 Victoria Road,FL,Miami,33124
DHL,One Hour,284 Stephen Court,IL,Springfield,62794
FEDEX,Seven Day,42019 Sycamore Hill,TX,El Paso,79955
FEDEX,One Hour,76 Veith Pass,NY,New York City,10105
FEDEX,One Day,839 Emmet Center,TX,Austin,78715
FEDEX,One Hour,48182 Elgar Alley,NC,Raleigh,27658
DHL,Three Day,18 Eagle Crest Center,FL,Daytona Beach,32128
USPS,Seven Day,5 Porter Circle,TX,Houston,77276
USPS,Three Day,0 South Point,PA,Philadelphia,19120
DHL,Seven Day,4 Bunker Hill Street,FL,Lakeland,33805
DHL,Seven Day,1 Lotheville Circle,NV,Henderson,89074
FEDEX,One Day,48394 Badeau Lane,AL,Mobile,36670
FEDEX,Seven Day,2629 Maywood Avenue,FL,Fort Lauderdale,33336
UPS,Seven Day,82543 Dayton Parkway,PA,Erie,16510
DHL,One Day,725 Lotheville Place,DC,Washington,20016
FEDEX,Three Day,861 Quincy Road,GA,Alpharetta,30022
DHL,One Day,50543 Mockingbird Plaza,AL,Montgomery,36109
UPS,Seven Day,32 Hanover Road,AL,Birmingham,35205
FEDEX,Three Day,01 Portage Court,CA,Santa Clara,95054
USPS,Three Day,025 Raven Trail,OH,Youngstown,44555
FEDEX,Seven Day,824 Manley Street,LA,Shreveport,71151
USPS,Three Day,7 Superior Place,NY,New York City,10009
UPS,One Day,0 Darwin Terrace,TX,El Paso,88519
FEDEX,One Hour,9 Goodland Road,CA,Oakland,94627
USPS,Three Day,28949 Vernon Plaza,OH,Columbus,43220
UPS,One Day,3761 Atwood Circle,VA,Richmond,23228
DHL,Seven Day,57 Kinsman Point,AL,Mobile,36622
DHL,One Hour,368 Red Cloud Alley,FL,Bradenton,34282
FEDEX,One Day,4 Sunfield Pass,OH,Canton,44760
USPS,Three Day,048 Sheridan Avenue,CA,Escondido,92030
FEDEX,Three Day,00045 Marquette Plaza,NV,Las Vegas,89160
USPS,One Day,2209 Hoard Pass,WA,Seattle,98104
UPS,Three Day,21 Butterfield Junction,WA,Seattle,98195
UPS,Seven Day,9000 Delaware Hill,TX,Houston,77223
USPS,Seven Day,720 Vernon Center,MS,Jackson,39236
UPS,Three Day,4 Kipling Park,NM,Albuquerque,87110
USPS,One Hour,30217 Fordem Place,MI,Flint,48505
UPS,Seven Day,697 Ludington Lane,CA,Irvine,92710
USPS,Three Day,4 Everett Street,TX,Dallas,75342
FEDEX,One Hour,2333 Chinook Trail,DC,Washington,20392
FEDEX,Three Day,7773 Mallard Circle,NJ,Paterson,7544
USPS,Three Day,2 Melrose Center,GA,Gainesville,30506
USPS,Three Day,86 Sherman Alley,SC,Florence,29505
FEDEX,Seven Day,50 Utah Street,CA,Santa Cruz,95064
DHL,Three Day,32 Bultman Crossing,IA,Cedar Rapids,52405
USPS,Three Day,53002 Garrison Center,CA,San Jose,95160
DHL,One Day,715 Michigan Plaza,LA,New Orleans,70129
DHL,One Hour,34754 Old Shore Junction,OR,Portland,97271
DHL,Seven Day,4 Oriole Trail,KY,Lexington,40581
UPS,Seven Day,52 Arkansas Junction,CA,Santa Ana,92705
UPS,One Day,7 Butterfield Crossing,VT,Montpelier,5609
USPS,One Hour,47315 Vera Plaza,CA,Oakland,94627
DHL,Three Day,10 Loomis Drive,VA,Alexandria,22313
UPS,One Hour,6 Nobel Park,TX,Houston,77260
UPS,Three Day,1760 Hallows Crossing,LA,Baton Rouge,70820
USPS,Seven Day,352 Miller Pass,VT,Montpelier,5609
FEDEX,One Hour,92 Kensington Avenue,UT,Salt Lake City,84145
USPS,Seven Day,05 Texas Parkway,CA,Corona,92883
FEDEX,One Day,716 Armistice Circle,MI,Detroit,48275
DHL,Three Day,5 Fuller Place,NC,Gastonia,28055
USPS,Seven Day,6 Delaware Pass,GA,Atlanta,31119
UPS,One Day,20 Nova Parkway,WA,Vancouver,98664
UPS,Three Day,0 Chinook Junction,TX,Fort Worth,76162
USPS,One Hour,0 Moland Place,AZ,Phoenix,85072
UPS,Seven Day,22 Anderson Center,MO,Kansas City,64101
DHL,One Day,1 Mallory Terrace,CO,Aurora,80045
USPS,Seven Day,49230 Golf Street,TX,Dallas,75372
USPS,Seven Day,057 Mayer Lane,CA,Stockton,95298
UPS,One Hour,94 Sutteridge Plaza,PA,Philadelphia,19196
DHL,Three Day,95 Dakota Trail,WI,Milwaukee,53285
DHL,One Day,49765 Parkside Crossing,UT,Salt Lake City,84110
DHL,One Hour,2315 Summerview Plaza,TX,Austin,78754
UPS,One Day,51 Ruskin Crossing,CA,Modesto,95397
USPS,One Hour,382 Express Park,MN,Minneapolis,55480
UPS,One Hour,739 Fordem Street,MI,Detroit,48258
UPS,One Hour,7 Melody Park,TX,Humble,77346
USPS,One Hour,3573 Marcy Circle,HI,Honolulu,96820
DHL,Three Day,38 Cottonwood Court,IN,Evansville,47732
UPS,Seven Day,599 Kings Trail,KY,Lexington,40546
USPS,Seven Day,95108 Fallview Alley,FL,Tampa,33625
UPS,Three Day,81575 Sugar Point,CA,Fresno,93704
DHL,Three Day,56 Milwaukee Plaza,MO,Jefferson City,65110
UPS,Seven Day,59266 Summerview Point,CA,San Diego,92127
DHL,One Day,91105 Bartillon Road,MI,Flint,48505
FEDEX,One Hour,5 Burning Wood Way,TX,Austin,78744
UPS,Three Day,99774 Delaware Pass,KY,Louisville,40298
UPS,One Day,6 Little Fleur Avenue,LA,New Orleans,70124
UPS,One Hour,9417 Sachtjen Circle,IN,Indianapolis,46278
USPS,Three Day,51 Sachtjen Alley,VA,Norfolk,23504
FEDEX,One Hour,8225 Browning Pass,MD,Baltimore,21216
DHL,One Day,9122 Declaration Road,DC,Washington,20425
USPS,One Hour,655 Orin Alley,FL,Port Saint Lucie,34985
FEDEX,Seven Day,86 Old Shore Lane,NC,Fayetteville,28305
USPS,Three Day,38188 West Crossing,IN,Indianapolis,46221
DHL,Three Day,246 Green Street,VA,Merrifield,22119
USPS,One Day,1 Sugar Court,CA,Pasadena,91131
USPS,Seven Day,87803 Mockingbird Lane,PA,Harrisburg,17126
UPS,Three Day,80 Lakeland Drive,NY,New York City,10184
USPS,One Day,784 La Follette Alley,CO,Denver,80223
USPS,Three Day,896 Cambridge Parkway,CA,North Hollywood,91616
USPS,Three Day,6 Bluejay Plaza,TX,Denton,76210
USPS,Seven Day,262 Everett Avenue,OH,Toledo,43610
FEDEX,One Hour,22514 Stuart Center,SC,Charleston,29403
DHL,One Day,2 Atwood Way,CA,Pasadena,91131
UPS,Three Day,8 Red Cloud Crossing,AL,Huntsville,35805
USPS,Seven Day,740 Carpenter Junction,FL,Orlando,32813
UPS,Three Day,62 Elgar Park,TX,Fort Worth,76162
FEDEX,Three Day,98659 Green Ridge Pass,CA,San Francisco,94159
UPS,One Hour,5 Harbort Road,CA,Pasadena,91109
FEDEX,One Hour,7832 Toban Terrace,MO,Saint Louis,63180
UPS,One Hour,710 Erie Court,CA,San Jose,95123
UPS,Three Day,1 Arizona Junction,WA,Spokane,99252
DHL,One Day,6 Hanson Lane,TX,El Paso,79968
DHL,One Hour,8 Green Ridge Plaza,AZ,Mesa,85215
USPS,Seven Day,833 Johnson Way,FL,Fort Lauderdale,33315
FEDEX,One Hour,66 Grover Circle,FL,Kissimmee,34745
DHL,One Hour,84 Briar Crest Road,CA,San Bernardino,92410
FEDEX,One Hour,8 Di Loreto Terrace,PA,Pittsburgh,15210
UPS,Seven Day,08447 Mayer Avenue,FL,Fort Pierce,34981
FEDEX,Seven Day,120 Express Road,IL,Schaumburg,60193
USPS,One Hour,6 Melvin Alley,MS,Jackson,39204
USPS,One Day,0874 Twin Pines Pass,TX,Houston,77223
USPS,Three Day,00141 Jenifer Circle,PA,Valley Forge,19495
UPS,Seven Day,0165 Petterle Place,OR,Eugene,97405
DHL,Three Day,78585 Huxley Crossing,CA,Modesto,95354
DHL,Seven Day,2 Oxford Parkway,CA,Oakland,94627
DHL,Three Day,6658 Prentice Point,IN,Fort Wayne,46862
UPS,Three Day,29 Darwin Avenue,DC,Washington,20057
UPS,Three Day,08 6th Court,NY,Brooklyn,11220
UPS,Seven Day,5 Fieldstone Circle,FL,Palm Bay,32909
DHL,Three Day,9 Towne Alley,AZ,Tucson,85743
DHL,One Day,0 Sutteridge Center,CA,Sacramento,95828
DHL,Three Day,527 Sutteridge Circle,WI,Green Bay,54313
DHL,Seven Day,5 Valley Edge Crossing,ND,Grand Forks,58207
DHL,Seven Day,1 Graedel Avenue,LA,Baton Rouge,70836
DHL,Seven Day,230 Bartelt Avenue,MI,Battle Creek,49018
DHL,One Hour,856 Clove Drive,NY,New York City,10170
USPS,One Hour,10853 Larry Drive,IN,Fort Wayne,46852
DHL,Seven Day,59 Paget Trail,IN,South Bend,46620
UPS,One Day,979 Killdeer Hill,PA,Lancaster,17605
USPS,Three Day,6676 Valley Edge Point,CA,Visalia,93291
UPS,Seven Day,435 Spohn Terrace,FL,Saint Augustine,32092
DHL,Three Day,69198 Hoard Street,IL,Springfield,62705
DHL,Seven Day,85485 North Junction,LA,Baton Rouge,70820
USPS,Seven Day,6 Cody Point,MN,Minneapolis,55402
DHL,Three Day,9 Ridge Oak Plaza,LA,Shreveport,71115
DHL,Three Day,9835 Del Mar Plaza,CA,Fullerton,92640
USPS,One Hour,09190 Green Ridge Terrace,OR,Portland,97216
DHL,Seven Day,818 Morning Way,NM,Las Cruces,88006
USPS,Seven Day,6769 Rusk Street,NV,Henderson,89012
UPS,Seven Day,40 Pankratz Hill,OH,Canton,44710
FEDEX,One Hour,2085 Fulton Trail,OH,Dayton,45440
UPS,One Day,0539 Trailsway Court,CA,Berkeley,94705
UPS,One Day,7 Leroy Plaza,AL,Montgomery,36195
USPS,One Hour,46 Hudson Circle,CA,Fresno,93786
DHL,Seven Day,51833 Maple Street,FL,Tampa,33686
UPS,Three Day,2 Westport Street,GA,Macon,31205
UPS,Seven Day,6 Eagan Junction,FL,Hialeah,33018
UPS,Three Day,32606 Jackson Avenue,NY,New York City,10014
USPS,One Day,5 Sullivan Pass,MA,Newton,2458
UPS,Seven Day,843 Dorton Terrace,IA,Des Moines,50347
FEDEX,Seven Day,739 Blaine Court,KS,Wichita,67260
USPS,One Day,2712 Claremont Parkway,NV,Las Vegas,89150
UPS,One Hour,9131 Debs Trail,SC,Aiken,29805
FEDEX,One Hour,468 Gina Circle,IN,Evansville,47712
USPS,Three Day,174 Harper Place,MI,Lansing,48956
UPS,Three Day,047 Manufacturers Drive,CA,Sacramento,95838
USPS,One Day,0 Chive Plaza,FL,Saint Petersburg,33731
DHL,Three Day,2370 Florence Point,IN,Indianapolis,46207
USPS,One Hour,49 Melby Drive,OK,Tulsa,74103
USPS,Seven Day,3 Russell Avenue,FL,Tampa,33647
DHL,One Hour,7950 Reindahl Way,MD,Hagerstown,21747
USPS,One Hour,2 Graceland Park,CA,Sacramento,95833
USPS,One Day,78964 Mcguire Alley,NM,Albuquerque,87180
UPS,Three Day,7028 Granby Terrace,CA,San Francisco,94177
USPS,One Day,04055 Little Fleur Park,FL,Boca Raton,33499
USPS,Seven Day,61 Cody Alley,TN,Memphis,38104
USPS,Three Day,045 Mccormick Lane,NJ,Paterson,7522
DHL,One Hour,2656 Burrows Parkway,AR,Little Rock,72222
USPS,Seven Day,32580 Stone Corner Center,NC,Greensboro,27499
UPS,One Day,8203 Warner Drive,OH,Columbus,43220
UPS,Seven Day,5 Karstens Place,AZ,Tucson,85720
UPS,Three Day,19 Butterfield Court,OH,Cleveland,44185
UPS,One Hour,0 Melvin Place,NJ,Paterson,7522
UPS,Three Day,1576 Lindbergh Way,CA,Escondido,92030
FEDEX,Seven Day,8737 Melvin Crossing,FL,Lakeland,33805
DHL,Seven Day,83984 Wayridge Place,FL,Jacksonville,32255
DHL,One Day,423 Fulton Road,AR,North Little Rock,72199
FEDEX,One Hour,63461 Birchwood Lane,OH,Dayton,45419
DHL,One Day,61378 Towne Junction,CA,Garden Grove,92645
UPS,Seven Day,7941 Springs Road,MO,Independence,64054
USPS,Three Day,2 Memorial Avenue,CA,Stockton,95219
FEDEX,Seven Day,69108 Brentwood Pass,CA,Northridge,91328
FEDEX,One Hour,38819 Vahlen Road,WI,Green Bay,54313
USPS,One Hour,087 Comanche Alley,ND,Grand Forks,58207
DHL,Seven Day,4 Red Cloud Lane,TX,Houston,77299
USPS,One Hour,99060 Helena Place,NY,Bronx,10454
UPS,One Hour,3046 Lunder Park,TX,El Paso,88514
UPS,One Day,6 Straubel Drive,MA,Boston,2114
DHL,One Hour,938 Sauthoff Crossing,UT,Provo,84605
UPS,Seven Day,7213 Hoepker Place,FL,Fort Myers,33994
FEDEX,Seven Day,91 Tomscot Center,AL,Birmingham,35215
UPS,Seven Day,67 Meadow Ridge Park,MO,Saint Louis,63126
UPS,Three Day,12 Stuart Court,CA,Sacramento,95865
DHL,Three Day,98 Washington Place,CO,Aurora,80044
USPS,Three Day,339 Farwell Street,MN,Minneapolis,55470
USPS,Seven Day,392 Manitowish Hill,CO,Denver,80204
DHL,One Day,4042 Tomscot Center,NE,Omaha,68144
UPS,Seven Day,605 Summit Avenue,NJ,New Brunswick,8922
DHL,One Day,75813 Orin Avenue,OH,Cincinnati,45271
UPS,Three Day,7198 Porter Pass,ID,Boise,83757
USPS,Seven Day,73236 Oneill Avenue,TX,Houston,77250
UPS,Seven Day,3 Grayhawk Place,NC,Charlotte,28205
UPS,One Hour,9 Colorado Pass,IL,Rockford,61105
UPS,One Day,3 Portage Drive,WI,Milwaukee,53263
DHL,Seven Day,25 Caliangt Parkway,KS,Topeka,66622
FEDEX,One Day,98 Walton Point,NC,Raleigh,27621
UPS,Seven Day,8 Melby Lane,AL,Birmingham,35236
USPS,One Hour,27 Farwell Center,OH,Columbus,43240
FEDEX,Three Day,626 Northland Trail,FL,Saint Petersburg,33715
FEDEX,Seven Day,87089 Dovetail Junction,MN,Minneapolis,55407
UPS,Seven Day,4690 Esker Crossing,UT,Provo,84605
DHL,One Hour,792 Manitowish Terrace,TN,Nashville,37250
FEDEX,Seven Day,5 Crest Line Hill,CA,San Bernardino,92405
DHL,Seven Day,145 Fairview Junction,NC,Greensboro,27425
DHL,Three Day,8 Anhalt Crossing,CA,Los Angeles,90025
USPS,Three Day,01 Blue Bill Park Circle,MI,Grand Rapids,49544
FEDEX,One Day,3723 Marcy Hill,FL,Tampa,33620
UPS,Three Day,15552 Hoepker Place,ID,Pocatello,83206
DHL,Three Day,50 Mendota Terrace,GA,Savannah,31416
FEDEX,Seven Day,47 Nobel Way,CA,San Francisco,94132
USPS,One Hour,920 Pond Trail,TN,Memphis,38126
UPS,Three Day,31 Morning Hill,IN,Jeffersonville,47134
USPS,One Hour,76 Hooker Place,GA,Atlanta,30336
USPS,Seven Day,45074 Grim Junction,HI,Honolulu,96835
UPS,Three Day,45114 Sloan Place,CA,Los Angeles,90060
UPS,One Hour,2 Spaight Crossing,NC,Charlotte,28299
FEDEX,One Day,7347 Novick Circle,NY,Bronx,10459
USPS,One Day,3 Arapahoe Lane,TX,Dallas,75287
FEDEX,One Day,896 Eastlawn Trail,KS,Shawnee Mission,66276
DHL,Three Day,74017 Del Sol Point,FL,Melbourne,32919
UPS,One Hour,7 Dixon Junction,WI,Milwaukee,53263
DHL,Seven Day,3 School Terrace,NY,Brooklyn,11225
UPS,One Hour,50 Armistice Trail,KY,Louisville,40205
UPS,Seven Day,48283 Ronald Regan Center,AL,Mobile,36628
DHL,Three Day,723 Gulseth Drive,GA,Atlanta,30368
UPS,Three Day,86 High Crossing Junction,MN,Monticello,55565
UPS,Three Day,376 Melrose Alley,CA,San Diego,92191
UPS,Three Day,7243 Tennessee Park,WA,Spokane,99205
USPS,Seven Day,3966 Fairfield Terrace,CA,San Diego,92145
UPS,One Hour,7577 Village Green Junction,MI,Flint,48555
FEDEX,One Hour,23400 Stang Court,LA,Lafayette,70505
FEDEX,Three Day,9875 Esker Pass,IL,Chicago,60646
FEDEX,Three Day,80 Hintze Lane,MO,Jefferson City,65105
FEDEX,One Hour,017 7th Drive,IN,Anderson,46015
DHL,One Hour,1228 Buell Avenue,PA,Pittsburgh,15279
USPS,One Day,11 Rigney Park,GA,Columbus,31998
FEDEX,Three Day,67 Pearson Plaza,KY,Louisville,40233
FEDEX,One Day,7 Evergreen Avenue,NC,Raleigh,27615
FEDEX,One Day,1 Merchant Crossing,AZ,Phoenix,85005
UPS,Seven Day,90 Pankratz Alley,WA,Spokane,99215
USPS,One Hour,6 Butterfield Street,WA,Seattle,98140
DHL,One Hour,61 Memorial Pass,TX,Houston,77045
FEDEX,Three Day,93 Old Shore Hill,FL,West Palm Beach,33411
FEDEX,Three Day,97651 Esker Court,AL,Gadsden,35905
UPS,Seven Day,71 6th Place,MN,Duluth,55805
USPS,One Hour,25659 Rockefeller Pass,TX,El Paso,88574
USPS,Seven Day,5 1st Alley,FL,Daytona Beach,32128
DHL,One Day,8 Canary Crossing,UT,Salt Lake City,84135
FEDEX,One Day,83 Meadow Valley Terrace,GA,Valdosta,31605
UPS,Seven Day,10447 Clove Street,OR,Portland,97206
DHL,Seven Day,8 Melby Avenue,CA,Fresno,93750
USPS,One Hour,264 Holy Cross Drive,TX,Dallas,75210
USPS,One Day,990 Sunbrook Junction,DC,Washington,20409
FEDEX,One Day,34 Portage Center,GA,Marietta,30061
USPS,Three Day,22 Fremont Hill,FL,Miami,33233
UPS,Three Day,6 4th Parkway,FL,Cape Coral,33915
USPS,Seven Day,2 Elgar Avenue,CA,Orange,92668
UPS,Seven Day,99700 Tomscot Court,MN,Saint Paul,55103
DHL,Seven Day,7 Drewry Park,FL,Saint Petersburg,33742
DHL,Seven Day,99 Aberg Junction,WA,Spokane,99215
FEDEX,One Hour,27 Hayes Road,LA,Baton Rouge,70826
DHL,One Hour,8 Manley Circle,TX,Amarillo,79105
DHL,One Day,261 Farwell Center,LA,Shreveport,71161
FEDEX,One Day,316 Coleman Road,IN,Indianapolis,46278
DHL,One Day,84696 Myrtle Junction,PA,Harrisburg,17140
USPS,Three Day,7769 Fordem Trail,CA,San Rafael,94913
USPS,One Hour,40 Stuart Crossing,VA,Arlington,22244
FEDEX,One Hour,68 Riverside Court,LA,Baton Rouge,70826
UPS,One Hour,38750 Stoughton Crossing,TX,El Paso,88589
DHL,Seven Day,323 Paget Alley,VA,Richmond,23225
DHL,Seven Day,44 Florence Circle,NY,Buffalo,14225
UPS,Three Day,4204 Buell Plaza,NY,New York City,10024
FEDEX,One Hour,9 Thompson Trail,NC,Durham,27710
USPS,Three Day,229 Algoma Circle,FL,Lake Worth,33462
FEDEX,One Hour,9301 Vahlen Court,NY,Brooklyn,11225
DHL,Three Day,8750 Pearson Pass,MI,Detroit,48224
USPS,Seven Day,38249 Browning Pass,WI,Madison,53790
DHL,Seven Day,83017 Sauthoff Pass,AL,Huntsville,35815
DHL,One Day,4 Kim Road,CA,Los Angeles,90030
UPS,Three Day,2 Columbus Plaza,VA,Arlington,22205
USPS,Seven Day,399 Cordelia Alley,MO,Kansas City,64179
USPS,One Hour,453 Fuller Pass,MT,Bozeman,59771
UPS,One Hour,7 Montana Terrace,FL,Bradenton,34282
UPS,One Day,36 Vahlen Street,CA,Corona,92878
DHL,One Hour,83632 Dennis Alley,IL,Chicago,60636
UPS,Seven Day,44 Darwin Alley,OK,Oklahoma City,73173
USPS,One Day,79 Graceland Circle,FL,Tallahassee,32304
USPS,One Day,7725 Merchant Way,CA,Stockton,95298
USPS,One Hour,40345 Evergreen Street,NV,North Las Vegas,89087
DHL,Three Day,6097 Westend Circle,FL,Fort Myers,33913
USPS,One Hour,3855 Orin Crossing,OK,Oklahoma City,73173
USPS,Three Day,038 Lotheville Street,CA,San Diego,92115
UPS,One Hour,4 Little Fleur Lane,FL,Saint Petersburg,33731
FEDEX,One Hour,560 Lakewood Parkway,TX,Fort Worth,76110
FEDEX,One Hour,59 Emmet Alley,IN,Evansville,47747
DHL,One Hour,4 Macpherson Park,NJ,Jersey City,7310
UPS,Seven Day,888 Tony Court,AL,Montgomery,36125
USPS,One Hour,57917 Kenwood Road,CA,Corona,92878
FEDEX,One Day,73 Welch Trail,AZ,Tucson,85715
USPS,Seven Day,8 Jenna Drive,WA,Seattle,98121
DHL,Seven Day,82656 Columbus Terrace,FL,Melbourne,32941
DHL,Three Day,04910 Sunbrook Terrace,FL,Miami,33190
DHL,One Day,9 Clarendon Park,CA,San Diego,92170
UPS,Seven Day,380 Ludington Circle,NJ,Trenton,8650
DHL,Three Day,44 Homewood Avenue,FL,Fort Lauderdale,33355
USPS,One Hour,5 Mallard Park,CT,New Haven,6505
DHL,One Hour,479 Goodland Court,TN,Knoxville,37924
UPS,Seven Day,0 Grayhawk Court,FL,Bradenton,34205
UPS,Seven Day,42182 Reinke Junction,PA,Philadelphia,19160
USPS,One Day,666 Ryan Street,DC,Washington,20442
USPS,Three Day,1 Riverside Trail,TX,San Antonio,78240
USPS,One Day,026 Troy Plaza,IL,Chicago,60636
FEDEX,One Hour,61 Kropf Place,IA,Des Moines,50335
USPS,One Hour,391 Hintze Hill,MI,Lansing,48956
USPS,One Day,91764 Straubel Park,CT,Waterbury,6721
DHL,Three Day,6046 Elka Parkway,ID,Boise,83727
FEDEX,Seven Day,98 Morningstar Way,NY,New York City,10170
USPS,Seven Day,090 Upham Place,MA,Springfield,1105
USPS,One Day,072 Schmedeman Alley,CT,Norwalk,6859
UPS,Seven Day,61 Bartillon Lane,NV,Sparks,89436
DHL,One Day,14826 Memorial Lane,GA,Atlanta,30386
USPS,One Hour,481 Grasskamp Place,NV,Las Vegas,89130
UPS,One Day,708 Harbort Park,CO,Colorado Springs,80951
UPS,One Day,2 Ryan Court,MI,Kalamazoo,49006
DHL,One Hour,4 Sachs Drive,OH,Cleveland,44197
DHL,Seven Day,9 Eastlawn Alley,MN,Monticello,55565
DHL,One Day,834 Little Fleur Park,WA,Vancouver,98687
DHL,One Day,352 Parkside Park,NE,Lincoln,68531
USPS,One Day,0514 Fairview Parkway,TX,Houston,77228
DHL,One Day,7981 Westend Circle,AK,Anchorage,99517
USPS,One Hour,4615 Morningstar Street,DC,Washington,20530
FEDEX,One Hour,69445 Lawn Hill,TN,Nashville,37210
USPS,One Hour,59046 Manitowish Pass,CA,Pasadena,91186
DHL,One Day,388 Duke Terrace,NE,Lincoln,68583
FEDEX,One Hour,8 Elgar Terrace,DC,Washington,20029
FEDEX,One Hour,93 Fairview Hill,TN,Johnson City,37605
DHL,One Day,71008 Roth Street,TX,Houston,77095
DHL,Seven Day,3266 Harbort Crossing,NY,New York City,10029
DHL,Seven Day,672 Corben Circle,CA,Lancaster,93584
FEDEX,One Day,1 5th Point,IN,Evansville,47732
DHL,Three Day,53 Columbus Road,LA,Baton Rouge,70836
UPS,Three Day,0254 Meadow Vale Trail,SC,Charleston,29403
FEDEX,One Day,15494 Darwin Park,CA,Pasadena,91131
DHL,Three Day,4 Sullivan Pass,DC,Washington,20392
FEDEX,Seven Day,64 Loftsgordon Park,KY,Louisville,40287
FEDEX,Seven Day,98 Summit Terrace,AZ,Tucson,85754
USPS,Seven Day,6 Jenifer Hill,KY,Louisville,40287
UPS,One Hour,091 Rutledge Plaza,WA,Vancouver,98687
DHL,One Day,8628 Hudson Park,IN,Indianapolis,46216
FEDEX,One Hour,873 Stoughton Junction,OR,Portland,97229
DHL,Three Day,34970 Rowland Alley,AR,Fort Smith,72905
UPS,One Hour,08 Schiller Street,AR,Little Rock,72204
FEDEX,One Hour,901 Petterle Park,CA,Inglewood,90310
DHL,Three Day,6 Porter Park,KY,Louisville,40220
FEDEX,One Hour,5410 Hauk Point,IA,Des Moines,50330
FEDEX,Seven Day,0940 Fremont Terrace,MO,Kansas City,64149
FEDEX,Seven Day,19 Quincy Place,PA,Philadelphia,19136
DHL,Three Day,547 Petterle Circle,FL,North Port,34290
USPS,Seven Day,57 Dakota Street,FL,Fort Lauderdale,33315
FEDEX,Seven Day,73047 Oriole Terrace,CA,Sacramento,94250
DHL,One Hour,864 Spaight Junction,NY,Buffalo,14215
DHL,One Hour,379 Anthes Center,CA,San Diego,92153
USPS,Three Day,19 Mendota Alley,IL,Decatur,62525
FEDEX,One Day,80 Colorado Pass,TX,Beaumont,77713
USPS,Seven Day,552 Stuart Circle,MS,Columbus,39705
DHL,One Hour,3320 Victoria Crossing,IL,Naperville,60567
UPS,One Hour,36170 Hazelcrest Hill,CA,Oakland,94616
USPS,Three Day,2 Gateway Terrace,OH,Cleveland,44111
UPS,Three Day,00 Laurel Terrace,CA,San Diego,92186
DHL,One Hour,4 Kenwood Alley,LA,New Orleans,70160
UPS,One Day,31278 Elgar Alley,TX,Dallas,75358
UPS,Seven Day,8 Melvin Junction,MN,Maple Plain,55572
FEDEX,Seven Day,2 Fuller Plaza,MA,Springfield,1152
FEDEX,Seven Day,7 Dryden Park,IN,Terre Haute,47805
USPS,One Day,3026 Talisman Street,DC,Washington,20404
FEDEX,One Hour,9923 Marcy Circle,IL,Chicago,60669
UPS,One Day,7 Nelson Hill,TX,El Paso,79905
USPS,Three Day,8 Ohio Way,FL,Jacksonville,32236
UPS,Seven Day,47995 Maple Wood Drive,CA,Carlsbad,92013
DHL,One Day,6 Armistice Street,IL,Evanston,60208
UPS,One Day,9 Logan Pass,CA,Los Angeles,90076
DHL,Seven Day,05748 Charing Cross Junction,LA,New Orleans,70124
USPS,Seven Day,473 Hoard Alley,AZ,Tucson,85748
USPS,One Day,6 Rieder Alley,ID,Boise,83716
DHL,Seven Day,3830 Hagan Street,MO,Kansas City,64130
USPS,Three Day,9023 Corscot Road,CA,Inglewood,90398
USPS,Three Day,5808 Mcbride Way,IA,Des Moines,50305
USPS,Seven Day,713 Trailsway Place,WI,Madison,53779
USPS,One Hour,41 Lakewood Place,MN,Monticello,55590
FEDEX,Seven Day,7636 Johnson Circle,TX,Fort Worth,76115
FEDEX,One Day,730 Mesta Court,TX,San Antonio,78255
USPS,One Hour,763 Hagan Terrace,AL,Birmingham,35254
FEDEX,Seven Day,1524 International Avenue,GA,Atlanta,31136
USPS,Three Day,61 Oneill Street,FL,Miami,33245
UPS,One Hour,477 Moose Trail,MA,Lynn,1905
DHL,One Hour,17369 Ruskin Center,LA,Baton Rouge,70894
USPS,Three Day,51342 Reinke Center,NC,Winston Salem,27105
UPS,Seven Day,4542 Norway Maple Trail,VA,Portsmouth,23705
FEDEX,One Hour,46 Canary Plaza,MO,Kansas City,64136
FEDEX,Three Day,1 Independence Park,IL,Chicago,60674
DHL,Seven Day,80 Artisan Park,WI,Madison,53726
USPS,One Day,90 Golf Course Lane,IN,Fort Wayne,46857
USPS,One Day,195 Ryan Terrace,GA,Columbus,31904
USPS,One Hour,35011 Stephen Trail,FL,Zephyrhills,33543
FEDEX,One Hour,888 Center Crossing,TN,Knoxville,37919
DHL,Seven Day,37463 Welch Crossing,CA,Fresno,93709
FEDEX,One Hour,7 Center Way,IL,Chicago,60674
UPS,One Hour,46 Farragut Court,MN,Saint Paul,55146
FEDEX,One Hour,4 Esker Junction,OH,Akron,44393
DHL,Seven Day,2837 Rockefeller Court,CA,Irvine,92612
FEDEX,Seven Day,73317 Fisk Avenue,NC,Raleigh,27658
USPS,One Day,5 Bluestem Plaza,SC,Columbia,29208
USPS,Three Day,9287 Milwaukee Trail,KS,Topeka,66622
UPS,One Hour,3 Del Mar Road,NY,Staten Island,10305
USPS,One Hour,68828 Dryden Way,MI,Detroit,48242
FEDEX,One Hour,4 Brickson Park Way,MT,Bozeman,59771
FEDEX,Seven Day,40337 Roxbury Place,KS,Wichita,67205
DHL,One Day,818 Aberg Terrace,NJ,Newark,7104
DHL,Three Day,68 Everett Plaza,CA,Bakersfield,93311
FEDEX,One Day,1 Gerald Court,FL,Boca Raton,33487
DHL,One Hour,148 Clemons Circle,OK,Oklahoma City,73109
FEDEX,Seven Day,2 Blaine Plaza,FL,Daytona Beach,32123
FEDEX,Seven Day,3976 Anzinger Circle,PA,Philadelphia,19104
FEDEX,Seven Day,46508 Loeprich Court,GA,Atlanta,30386
USPS,One Hour,8974 Talmadge Place,TX,San Antonio,78235
DHL,Seven Day,41599 Porter Place,VA,Richmond,23237
USPS,One Day,37 Chinook Court,NJ,Newark,7195
FEDEX,One Hour,19960 Amoth Crossing,TX,Dallas,75216
DHL,One Day,61 Saint Paul Terrace,GA,Savannah,31416
USPS,One Hour,25 Homewood Hill,TX,Houston,77010
DHL,One Hour,297 Lyons Way,VA,Richmond,23220
UPS,Three Day,563 Warner Crossing,AZ,Phoenix,85030
USPS,Seven Day,59 Bonner Pass,FL,West Palm Beach,33405
USPS,Seven Day,0 Old Shore Hill,KY,Lexington,40524
UPS,One Day,4 Lyons Center,WI,Madison,53726
UPS,Seven Day,6 Grayhawk Terrace,CA,Alhambra,91841
UPS,One Hour,0 Sachtjen Place,IN,Evansville,47719
USPS,One Day,9 Brentwood Plaza,TX,Humble,77346
USPS,One Hour,82687 Bonner Lane,TX,Houston,77070
UPS,Seven Day,2838 Commercial Trail,DE,Newark,19725
FEDEX,Three Day,2 Memorial Terrace,CA,Los Angeles,90045
FEDEX,One Hour,02760 Mallory Trail,MA,Boston,2216
FEDEX,One Day,0 Rowland Point,UT,Salt Lake City,84115
DHL,Three Day,29 Grover Drive,TN,Memphis,38188
FEDEX,One Hour,9351 Vera Terrace,NY,New York City,10014
DHL,One Hour,4186 Ridgeway Park,NC,Charlotte,28205
UPS,One Hour,41729 Clove Terrace,UT,Salt Lake City,84110
USPS,Seven Day,311 Esker Terrace,TN,Memphis,38168
UPS,Three Day,826 Russell Court,AL,Mobile,36616
UPS,One Hour,8 Anzinger Circle,NV,Reno,89510
FEDEX,One Hour,50 Reinke Crossing,NV,North Las Vegas,89036
USPS,One Day,36863 Westridge Center,NY,New York City,10024
USPS,Three Day,82 Waywood Alley,CA,Sacramento,94257
FEDEX,One Hour,13 Spohn Trail,VA,Norfolk,23520
UPS,One Day,50 Corben Center,FL,Miami,33180
USPS,Seven Day,793 Kensington Park,MN,Duluth,55805
UPS,Three Day,51501 Mcguire Trail,CA,Stockton,95210
UPS,One Day,30 Continental Crossing,LA,Lake Charles,70607
UPS,One Hour,8582 Bartelt Pass,MD,Rockville,20851
DHL,One Day,64590 Buell Alley,TX,Houston,77040
UPS,One Hour,41 Magdeline Lane,NC,Charlotte,28284
FEDEX,Three Day,6079 Burning Wood Place,CA,Anaheim,92825
DHL,One Day,37 Carioca Avenue,NC,Raleigh,27610
FEDEX,One Day,95 Paget Trail,CO,Denver,80217
USPS,One Hour,54 Morningstar Road,TN,Knoxville,37924
DHL,Seven Day,59266 David Pass,GA,Decatur,30089
USPS,Seven Day,51988 Kedzie Alley,PA,Erie,16550
USPS,One Day,675 Kipling Drive,LA,Metairie,70033
DHL,One Hour,4989 International Crossing,OH,Springfield,45505
DHL,One Hour,68539 Clyde Gallagher Court,OH,Cincinnati,45213
USPS,Three Day,6578 Manitowish Drive,LA,Baton Rouge,70815
DHL,Three Day,05406 Pine View Way,FL,Miami,33180
DHL,Seven Day,5 Homewood Circle,FL,Hollywood,33023
UPS,One Hour,28048 Mcguire Center,GA,Alpharetta,30022
DHL,Seven Day,12 Bartillon Lane,IN,Muncie,47306
DHL,Three Day,25018 American Hill,CA,Los Angeles,90055
FEDEX,Three Day,5745 Chinook Place,GA,Atlanta,30306
FEDEX,Three Day,3796 Kennedy Trail,NY,Albany,12222
FEDEX,One Day,3521 Messerschmidt Court,VA,Alexandria,22333
FEDEX,One Day,830 Pierstorff Junction,KS,Wichita,67210
FEDEX,Three Day,83 Mockingbird Parkway,OK,Tulsa,74170
FEDEX,Three Day,3 Oak Street,LA,New Orleans,70165
FEDEX,One Hour,3 Heffernan Hill,NJ,Jersey City,7310
UPS,Seven Day,28318 Continental Crossing,CA,Salinas,93907
FEDEX,One Day,8114 Barnett Terrace,CA,Santa Barbara,93106
DHL,Three Day,2572 Sundown Parkway,IA,Des Moines,50369
FEDEX,One Hour,76 Calypso Way,OR,Portland,97211
USPS,One Day,0 Swallow Pass,IL,Chicago,60646
DHL,One Day,768 Drewry Hill,CO,Colorado Springs,80935
FEDEX,One Hour,07025 Charing Cross Plaza,MN,Maple Plain,55572
UPS,Seven Day,74 Bobwhite Circle,VA,Virginia Beach,23459
FEDEX,Seven Day,04 Veith Street,CA,Ventura,93005
USPS,One Hour,07 Gateway Center,IN,Jeffersonville,47134
USPS,Three Day,251 Nancy Alley,MN,Minneapolis,55448
USPS,One Day,09 Del Sol Street,FL,Cape Coral,33915
USPS,One Hour,7 Bashford Circle,TX,El Paso,88553
UPS,One Day,02305 Washington Way,OK,Tulsa,74193
DHL,Three Day,0 Fairview Crossing,AR,Little Rock,72222
FEDEX,Seven Day,0012 Bultman Center,SC,Greenville,29615
USPS,Seven Day,4128 Clyde Gallagher Parkway,CO,Colorado Springs,80915
DHL,One Day,22208 Huxley Way,AL,Birmingham,35231
USPS,Seven Day,97 Merchant Point,MT,Billings,59105
UPS,One Day,9924 Sloan Terrace,WV,Charleston,25331
FEDEX,One Hour,10 Melody Point,GA,Atlanta,30343
FEDEX,One Hour,87382 Walton Way,VA,Richmond,23203
FEDEX,Seven Day,4399 Darwin Crossing,TX,San Antonio,78215
FEDEX,One Hour,46414 Marcy Street,NY,Staten Island,10305
USPS,One Day,6404 Menomonie Circle,DC,Washington,20380
USPS,Three Day,833 Roxbury Parkway,OH,Cincinnati,45243
USPS,Seven Day,36961 Talmadge Junction,TX,Houston,77030
USPS,Three Day,71 Oriole Street,MO,Saint Louis,63110
DHL,Seven Day,99394 Surrey Avenue,TX,Austin,78754
DHL,Three Day,70336 Golden Leaf Junction,CA,San Diego,92145
USPS,One Hour,86708 Dexter Road,CO,Fort Collins,80525
FEDEX,One Hour,5959 Spohn Court,ID,Boise,83757
FEDEX,Seven Day,95688 Meadow Vale Place,UT,Ogden,84409
DHL,One Day,9049 Susan Parkway,IL,Aurora,60505
DHL,One Hour,73 Garrison Crossing,MN,Saint Paul,55127
DHL,Seven Day,4 Drewry Lane,WV,Huntington,25770
USPS,Three Day,35405 Redwing Park,GA,Valdosta,31605
USPS,One Day,0 Eagan Hill,TX,Mesquite,75185
UPS,One Day,167 Clemons Street,TX,San Antonio,78245
DHL,One Hour,24781 Saint Paul Crossing,MI,Detroit,48217
UPS,One Day,1 Twin Pines Junction,TX,Texarkana,75507
FEDEX,One Hour,105 Schmedeman Plaza,MO,Jefferson City,65105
DHL,One Hour,9 Vernon Place,FL,Pensacola,32575
USPS,One Hour,6128 Dryden Street,LA,Baton Rouge,70894
UPS,One Hour,14 Melody Road,NY,Albany,12205
FEDEX,One Day,44972 Lyons Junction,FL,Sarasota,34276
FEDEX,Three Day,080 Moulton Trail,NM,Albuquerque,87201
FEDEX,One Day,7899 Morningstar Junction,WA,Spokane,99210
USPS,One Hour,08615 Dakota Terrace,WI,Madison,53705
UPS,Three Day,89600 Paget Plaza,CA,Berkeley,94705
DHL,One Day,0 Arapahoe Crossing,TX,Houston,77025
UPS,One Hour,815 Roth Lane,TX,San Antonio,78230
USPS,Three Day,708 Mcguire Lane,CA,Sacramento,94273
USPS,Three Day,24315 Eliot Parkway,NY,New York City,10260
USPS,Three Day,1 Hazelcrest Road,AR,Little Rock,72231
DHL,Seven Day,902 Beilfuss Alley,MD,Baltimore,21216
USPS,Seven Day,59 Graceland Lane,IN,Indianapolis,46221
DHL,One Hour,06215 Sheridan Avenue,OR,Eugene,97405
FEDEX,One Day,1 Homewood Hill,FL,Orlando,32868
USPS,One Hour,990 Elka Center,MI,Detroit,48206
UPS,One Day,2044 Leroy Street,CT,New Haven,6510
USPS,Three Day,88934 Briar Crest Pass,AL,Birmingham,35263
UPS,Seven Day,02078 Erie Parkway,SD,Sioux Falls,57193
USPS,One Day,55629 Arapahoe Alley,MO,Springfield,65805
FEDEX,One Day,504 Hovde Lane,GA,Decatur,30089
USPS,Seven Day,68 Veith Circle,IL,Rockford,61105
FEDEX,One Hour,817 Union Point,KY,Lexington,40576
UPS,Seven Day,3 Morningstar Plaza,NY,Rochester,14609
DHL,Three Day,85 Fordem Parkway,TX,El Paso,79905
UPS,One Day,120 Lyons Park,LA,New Orleans,70187
FEDEX,Three Day,3 Clarendon Avenue,DC,Washington,20551
USPS,One Day,85719 Hoepker Hill,MO,Kansas City,64109
FEDEX,One Hour,3 Meadow Valley Street,TX,Austin,78726
FEDEX,Three Day,95968 Corben Place,FL,Miami,33245
UPS,Seven Day,9 8th Way,NJ,Newark,7112
USPS,One Day,1 Northfield Plaza,CA,Los Angeles,90071
FEDEX,One Day,9048 Loomis Way,CA,Torrance,90505
DHL,One Hour,73091 Washington Center,VA,Suffolk,23436
FEDEX,Seven Day,9352 Troy Terrace,NY,Utica,13505
FEDEX,Three Day,0924 Tennyson Circle,CA,Bakersfield,93311
DHL,Seven Day,21258 Shelley Alley,CA,Glendale,91205
USPS,Three Day,6391 Shoshone Lane,NV,Las Vegas,89110
DHL,One Day,76 Prentice Point,CA,Fullerton,92835
DHL,Seven Day,03909 Eagan Center,IL,Evanston,60208
DHL,Three Day,694 6th Avenue,FL,Tampa,33680
USPS,One Day,9149 Forest Road,CO,Littleton,80127
DHL,One Day,8038 Eliot Hill,AZ,Glendale,85305
DHL,Seven Day,071 Ilene Point,NV,Las Vegas,89178
UPS,One Day,33 Scoville Way,PA,Pittsburgh,15215
FEDEX,Three Day,14176 Spohn Street,TX,Round Rock,78682
DHL,Three Day,664 Fremont Road,GA,Atlanta,31136
USPS,Seven Day,7 Fallview Junction,NY,New York City,10110
UPS,Three Day,33067 South Hill,MN,Minneapolis,55428
FEDEX,One Day,4855 Bonner Avenue,GA,Atlanta,31119
FEDEX,One Hour,00981 International Street,CA,Los Angeles,90005
UPS,Seven Day,339 Forest Run Circle,TX,Houston,77293
FEDEX,Three Day,99 Vermont Park,MO,Kansas City,64199
DHL,Seven Day,07 Roxbury Avenue,CA,Inglewood,90398
FEDEX,Three Day,07947 Veith Way,GA,Columbus,31998
FEDEX,Seven Day,4217 Ridgeview Center,FL,Tampa,33673
DHL,One Hour,84 Stone Corner Park,TX,Gatesville,76598
USPS,Three Day,139 Kedzie Alley,CA,San Francisco,94169
FEDEX,Three Day,1 Colorado Lane,WA,Lakewood,98498
UPS,One Hour,8939 Randy Road,CA,San Francisco,94154
USPS,Seven Day,1652 School Park,MA,Springfield,1129
FEDEX,Seven Day,51 Dorton Alley,KY,Louisville,40233
USPS,One Day,0 Hayes Parkway,NE,Omaha,68179
FEDEX,One Day,414 Algoma Drive,IA,Des Moines,50347
UPS,One Hour,88391 Shasta Trail,KY,Louisville,40256
DHL,One Hour,6 Goodland Terrace,CA,San Diego,92110
UPS,Three Day,76314 Cottonwood Crossing,FL,Jacksonville,32209
UPS,One Day,81894 Miller Street,GA,Albany,31704
USPS,Seven Day,53 Hagan Crossing,SC,Columbia,29215
FEDEX,Three Day,77 Straubel Avenue,VA,Richmond,23220
USPS,Three Day,9 Florence Drive,PA,Pittsburgh,15279
FEDEX,Seven Day,575 Eagle Crest Road,FL,Fort Pierce,34949
USPS,Seven Day,69656 Grim Place,MI,Ann Arbor,48107
UPS,Seven Day,51 Warner Terrace,MT,Billings,59105
DHL,Three Day,91312 Miller Street,GA,Atlanta,30340
DHL,One Day,9 Oak Valley Pass,SD,Sioux Falls,57193
UPS,One Day,077 Sauthoff Point,CA,Garden Grove,92645
FEDEX,One Hour,1627 Clyde Gallagher Point,MN,Saint Paul,55108
DHL,Three Day,15971 Barnett Street,FL,Orlando,32891
FEDEX,One Day,6 Eliot Place,WA,Spokane,99220
DHL,Seven Day,38 Moulton Terrace,KS,Kansas City,66112
USPS,Seven Day,7 Pleasure Center,FL,Bradenton,34210
FEDEX,Three Day,963 Shopko Point,TX,Midland,79705
USPS,Three Day,62 Killdeer Crossing,MO,Kansas City,64114
DHL,Seven Day,74234 Prentice Trail,WA,Seattle,98158
FEDEX,Three Day,3 Del Sol Way,FL,Cape Coral,33915
USPS,Seven Day,969 Sunfield Pass,CA,San Jose,95123
UPS,One Day,34 Hanson Parkway,FL,Jacksonville,32255
DHL,One Day,13408 Bayside Park,CA,Burbank,91505
USPS,Seven Day,008 Crest Line Hill,MN,Monticello,55565
UPS,One Hour,18757 Morningstar Avenue,TX,El Paso,79940
DHL,Seven Day,862 Lindbergh Place,NY,Port Washington,11054
FEDEX,Seven Day,9043 Northview Alley,NY,Brooklyn,11220
USPS,One Day,04 Bluestem Terrace,OK,Oklahoma City,73119
FEDEX,One Day,1866 Vahlen Crossing,CA,Los Angeles,90087
UPS,Seven Day,61 Dwight Center,CO,Colorado Springs,80915
FEDEX,Seven Day,444 Lien Trail,WA,Seattle,98158
USPS,One Hour,20 Anderson Point,ID,Boise,83716
USPS,Three Day,73 Westridge Way,LA,New Orleans,70165
FEDEX,Three Day,792 David Drive,VA,Arlington,22234
FEDEX,Three Day,6 Dixon Point,TX,Dallas,75231
FEDEX,Seven Day,88472 Golf Course Crossing,WV,Huntington,25705
DHL,One Hour,9823 Schmedeman Junction,IL,Naperville,60567
USPS,One Day,65121 Harper Parkway,TX,El Paso,88558
FEDEX,Three Day,37 Dwight Road,FL,Lake Worth,33462
DHL,One Day,52987 Thompson Hill,CA,Simi Valley,93094
UPS,One Day,201 Waubesa Park,NM,Albuquerque,87180
DHL,One Day,9326 Merry Hill,TX,Dallas,75221
FEDEX,One Hour,0 Cardinal Lane,NV,Henderson,89012
USPS,One Day,2926 Fallview Trail,TX,Dallas,75353
UPS,Seven Day,656 Reinke Lane,CO,Boulder,80305
DHL,Seven Day,00369 Victoria Crossing,MD,Silver Spring,20918
FEDEX,Seven Day,4 Merrick Point,DC,Washington,20220
DHL,Seven Day,16 Vernon Hill,AZ,Scottsdale,85271
USPS,One Hour,3 Havey Avenue,WA,Seattle,98104
DHL,One Hour,18480 Morningstar Parkway,MD,Baltimore,21282
FEDEX,Seven Day,81 Larry Place,CA,Escondido,92030
USPS,Three Day,145 Wayridge Court,AZ,Phoenix,85025
DHL,Seven Day,2 Red Cloud Lane,CT,New Haven,6533
FEDEX,One Day,4428 Almo Center,FL,Clearwater,33763
FEDEX,Three Day,25 Prentice Avenue,IL,Chicago,60697
UPS,One Hour,003 Veith Park,AK,Fairbanks,99790
UPS,Three Day,11 Oxford Crossing,WA,Seattle,98148
FEDEX,Three Day,1785 Algoma Point,TX,Fort Worth,76198
DHL,Seven Day,0 Anniversary Crossing,CA,Stockton,95219
DHL,Seven Day,0649 Dwight Terrace,DC,Washington,20575
USPS,Three Day,39 Eggendart Junction,MN,Saint Paul,55127
DHL,Three Day,19144 Donald Way,OH,Cincinnati,45218
DHL,One Hour,0 Monterey Place,WA,Tacoma,98417
FEDEX,Three Day,16 Banding Plaza,TX,Wichita Falls,76310
UPS,Three Day,7 Dexter Road,IN,Indianapolis,46226
DHL,One Hour,883 Gina Way,MN,Minneapolis,55428
DHL,One Hour,01686 Badeau Place,DC,Washington,20268
UPS,Seven Day,77453 Hermina Way,NV,North Las Vegas,89036
FEDEX,Seven Day,31987 Lakewood Gardens Terrace,DC,Washington,20046
USPS,One Hour,568 Russell Junction,CA,Irvine,92612
UPS,One Hour,00198 Stang Street,MA,Boston,2298
USPS,Three Day,06694 David Circle,TX,San Antonio,78240
FEDEX,Three Day,7550 Summer Ridge Way,NY,Jamaica,11447
FEDEX,Seven Day,9 Arizona Junction,CA,Chico,95973
FEDEX,Seven Day,0727 Northridge Avenue,DC,Washington,20380
USPS,Three Day,27799 Lawn Center,MO,Saint Louis,63110
FEDEX,One Hour,25643 Huxley Circle,AL,Huntsville,35895
USPS,Three Day,7 Union Court,MD,Bethesda,20892
DHL,Seven Day,8 Katie Trail,CA,Fresno,93794
FEDEX,One Day,501 Straubel Circle,CA,San Diego,92110
DHL,Three Day,33009 La Follette Parkway,VA,Richmond,23228
UPS,Three Day,6729 Emmet Center,AZ,Phoenix,85083
UPS,One Day,60527 Upham Crossing,NV,North Las Vegas,89087
UPS,Seven Day,175 Anniversary Park,PA,Johnstown,15906
UPS,Seven Day,591 Sachs Court,FL,Panama City,32405
USPS,One Hour,470 Manitowish Junction,MD,Baltimore,21229
FEDEX,Three Day,56800 Haas Place,CA,Stockton,95219
DHL,Seven Day,2847 Holmberg Lane,CA,Los Angeles,90040
DHL,One Day,80 Gerald Park,AR,Fort Smith,72916
DHL,Three Day,5 Waubesa Court,OH,Cleveland,44111
USPS,One Day,1370 Carpenter Avenue,DE,Newark,19714
USPS,One Hour,19018 Meadow Vale Avenue,IA,Des Moines,50369
FEDEX,One Hour,626 Eastlawn Circle,CA,Los Angeles,90010
DHL,One Day,17260 Victoria Plaza,VA,Richmond,23242
FEDEX,One Day,4647 Merry Trail,IL,Peoria,61629
FEDEX,Seven Day,1 Sutteridge Center,GA,Cumming,30130
USPS,One Day,65154 Quincy Trail,WY,Cheyenne,82007
FEDEX,Seven Day,05846 Schmedeman Parkway,CA,Anaheim,92825
FEDEX,Seven Day,2 Bellgrove Way,MI,Battle Creek,49018
FEDEX,Three Day,18 Carioca Lane,GA,Gainesville,30506
DHL,One Hour,5 Dahle Parkway,CO,Littleton,80126
USPS,One Day,466 Kim Court,AL,Mobile,36670
DHL,One Day,19727 Dryden Parkway,KS,Topeka,66667
UPS,One Hour,93517 Jenna Terrace,CT,Bridgeport,6673
DHL,One Hour,86646 Parkside Court,SC,Spartanburg,29319
DHL,Seven Day,64445 Golf Trail,FL,Miami,33164
USPS,One Day,2612 Burning Wood Alley,MD,Baltimore,21216
USPS,One Day,31 Clemons Circle,MA,Watertown,2472
UPS,Three Day,39 Karstens Junction,NC,Greensboro,27409
DHL,Seven Day,5953 Division Pass,LA,Shreveport,71105
USPS,One Day,33 Granby Circle,TX,Houston,77266
USPS,One Day,70283 Manufacturers Lane,AR,Little Rock,72215
DHL,One Day,1316 Columbus Plaza,PA,Erie,16565
UPS,Seven Day,61 Manufacturers Circle,WI,Milwaukee,53285
DHL,Three Day,00318 Elmside Place,MD,Baltimore,21203
FEDEX,Three Day,5648 Bonner Court,AK,Anchorage,99507
UPS,One Day,70 Hooker Circle,PA,Harrisburg,17105
DHL,Seven Day,0378 Vahlen Point,NY,Staten Island,10310
UPS,One Hour,69 Maryland Circle,WA,Vancouver,98664
USPS,One Hour,972 Stuart Drive,OH,Cleveland,44197
UPS,Seven Day,225 Union Way,TX,Austin,78764
FEDEX,One Hour,73 Charing Cross Center,NC,Charlotte,28220
UPS,One Hour,20186 Ryan Circle,FL,Saint Petersburg,33742
DHL,One Hour,39242 Vernon Street,CT,Norwalk,6859
FEDEX,Three Day,21573 Ridgeview Center,IA,Iowa City,52245
UPS,One Day,494 Bay Alley,MO,Saint Louis,63158
UPS,Seven Day,70914 Westerfield Point,NJ,Trenton,8695
DHL,Seven Day,7981 School Plaza,NV,Carson City,89714
UPS,Three Day,1375 Northport Court,CA,San Bernardino,92415
UPS,One Day,464 Portage Court,FL,Orlando,32835
DHL,One Hour,069 New Castle Court,PA,Mc Keesport,15134
UPS,Three Day,70 Anniversary Parkway,NC,Charlotte,28230
DHL,One Hour,170 Eliot Lane,SC,Columbia,29203
UPS,Seven Day,5 Packers Court,MI,Detroit,48217
DHL,Three Day,570 Bobwhite Parkway,TN,Knoxville,37939
USPS,One Hour,499 Eagle Crest Parkway,IL,Springfield,62794
DHL,Seven Day,7026 Artisan Lane,CA,Petaluma,94975
USPS,Seven Day,07 Havey Park,KY,Frankfort,40618
USPS,Three Day,67036 Bultman Terrace,VA,Falls Church,22047
USPS,Three Day,5 Hazelcrest Plaza,CA,San Diego,92165
UPS,One Hour,49258 Scoville Alley,NY,New York City,10275
USPS,One Hour,92 Vera Way,TX,Spring,77386
USPS,One Day,811 Pawling Center,NJ,Trenton,8603
USPS,One Day,7456 Burning Wood Way,OH,Akron,44329
USPS,Seven Day,428 Pepper Wood Point,TX,Houston,77218
DHL,Three Day,09279 East Court,DC,Washington,20470
USPS,Seven Day,58 Carey Street,FL,Miami,33134
DHL,Seven Day,76872 Swallow Drive,AL,Birmingham,35205
FEDEX,One Hour,14208 Lakeland Circle,MI,Dearborn,48126
USPS,Three Day,9971 Ryan Road,CA,Pasadena,91125
UPS,One Day,17957 Sutteridge Trail,CA,Orange,92867
DHL,Three Day,6832 Kedzie Road,MI,Grand Rapids,49505
FEDEX,One Day,30 Dapin Crossing,PA,Philadelphia,19136
USPS,Three Day,3728 Anthes Lane,FL,Tallahassee,32399
USPS,One Day,22518 Superior Terrace,LA,Lafayette,70505
USPS,One Day,04432 Bartelt Center,TX,Longview,75605
DHL,Seven Day,757 Hintze Junction,LA,Baton Rouge,70883
UPS,One Day,97 Artisan Way,NJ,Jersey City,7310
UPS,Three Day,46928 Eastlawn Hill,OH,Columbus,43240
DHL,One Hour,1022 Weeping Birch Street,KY,Louisville,40266
FEDEX,Three Day,315 Merchant Alley,WI,Madison,53779
DHL,One Hour,5 Homewood Trail,NV,Henderson,89012
UPS,Three Day,77292 Pawling Parkway,MO,Kansas City,64187
FEDEX,Seven Day,07353 Ludington Park,PA,Pittsburgh,15210
USPS,One Hour,5 Cordelia Road,CT,Waterbury,6705
DHL,One Day,0349 Chive Drive,TX,Houston,77075
USPS,One Day,081 Delladonna Circle,UT,Ogden,84409
