CompanyName,Address,City,State,Zipcode,PhoneNumber,VendorID
"Frami, Gaylord and Crist",58274 Bultman Place,San Antonio,Texas,78235,210-343-0039,7192326
"Senger, Dickens and Smitham",39875 Roxbury Road,El Paso,Texas,88514,915-372-6703,1915700
Hayes-Goodwin,29 Quincy Court,Birmingham,Alabama,35210,205-524-3738,5018863
"Nolan, Koelpin and Eichmann",678 Hoffman Way,Akron,Ohio,44329,330-613-1604,1923880
"Bergstrom, Cummerata and Maggio",1468 Graedel Drive,Watertown,Massachusetts,2472,978-180-8532,1113042
"Murphy, Aufderhar and Schiller",7 Clarendon Terrace,San Francisco,California,94147,415-437-1421,1212162
Greenholt-Rosenbaum,824 Utah Hill,Irving,Texas,75037,214-361-5793,8357716
Bechtelar Inc,187 Pepper Wood Court,Gainesville,Florida,32627,352-672-9809,6196258
Rodriguez Inc,8 Westend Street,New Bedford,Massachusetts,2745,508-506-7721,7004217
Runte LLC,330 Becker Drive,Youngstown,Ohio,44505,330-794-2880,7183951
Lynch-Ortiz,86442 Lien Alley,Knoxville,Tennessee,37919,865-144-8318,9907617
Jenkins LLC,68 Leroy Place,New Castle,Pennsylvania,16107,724-797-7435,3408405
"Koelpin, Spencer and Kirlin",66 Acker Crossing,Duluth,Minnesota,55805,218-593-2048,6123190
Medhurst-Jones,3996 Darwin Way,Clearwater,Florida,34629,727-981-0506,523737
Koch-Moen,03 Monument Drive,Salinas,California,93907,831-628-5911,3196260
"Schiller, Metz and Connelly",5 Southridge Way,Brooklyn,New York,11236,917-774-7541,7441873
Dare and Sons,79 Quincy Circle,Boca Raton,Florida,33499,561-102-2269,691427
Klocko Inc,7255 Mendota Circle,Arlington,Virginia,22225,571-982-7502,1352697
Bogisich-Bechtelar,8338 Commercial Court,San Diego,California,92153,619-385-2166,3313586
Shanahan-Nienow,8147 Schlimgen Hill,Pensacola,Florida,32520,850-684-7289,7288286
Goodwin-Daniel,5 Erie Park,Philadelphia,Pennsylvania,19178,215-788-7139,5760408
Weber and Sons,65 Superior Pass,San Angelo,Texas,76905,325-698-4153,3561225
"Welch, Tremblay and Mante",3 Southridge Road,Worcester,Massachusetts,1605,508-669-0682,7380438
"Collins, Gaylord and Baumbach",7109 Independence Trail,Portsmouth,New Hampshire,214,603-576-0617,8850194
Dickinson and Sons,74 Gerald Point,Fort Collins,Colorado,80525,970-954-0112,9470880
Torphy Group,878 Iowa Way,Washington,District of Columbia,20520,202-821-4917,9238553
Harvey Group,7872 High Crossing Terrace,Spokane,Washington,99252,509-282-6299,4593302
Schmidt Inc,58468 Del Sol Court,Los Angeles,California,90076,323-506-7765,5742813
"Shanahan, Heidenreich and Barrows",9 Waubesa Circle,New Orleans,Louisiana,70174,504-420-7784,3474255
Feeney-Kassulke,03 Iowa Alley,Houston,Texas,77015,713-512-4154,2595957
Frami-Maggio,08 Russell Way,Minneapolis,Minnesota,55407,952-149-9490,5890830
Lynch-Rath,22 Rutledge Hill,Chicago,Illinois,60619,773-841-3956,4649612
Steuber-Wisoky,5 Oriole Parkway,San Antonio,Texas,78235,210-685-4462,4204605
"Keebler, Goyette and Douglas",82160 Merry Court,Atlanta,Georgia,30311,404-749-0359,5842149
"Schmidt, Botsford and Tromp",9 Hintze Pass,Midland,Texas,79710,432-936-3816,6331836
Goodwin-Yost,42480 Summer Ridge Lane,Houston,Texas,77015,832-318-4470,8163478
Swaniawski-Bernier,59 Anniversary Junction,Springfield,Illinois,62705,217-100-1551,9387890
Kuphal-Leannon,55404 Parkside Drive,Conroe,Texas,77305,936-807-0097,5034151
Ryan-Kilback,6477 Lillian Crossing,Buffalo,New York,14276,716-186-4320,2146973
"Gislason, West and Murphy",50 Hagan Place,Pittsburgh,Pennsylvania,15240,412-744-0366,921127
"Block, Sauer and Feil",1892 Bunting Drive,Fredericksburg,Virginia,22405,540-590-0907,5349529
Stark LLC,95886 Spenser Center,Las Vegas,Nevada,89135,702-862-6205,4333544
Labadie LLC,71588 Eastlawn Avenue,Memphis,Tennessee,38181,901-531-7866,5892379
Hartmann-Kshlerin,8800 Warner Parkway,London,Kentucky,40745,606-616-8786,9846371
Weimann LLC,14 Ridgeway Way,Toledo,Ohio,43699,419-216-1778,3641345
"Welch, Dickens and Jenkins",078 Delladonna Junction,Sioux City,Iowa,51110,712-887-9465,7180776
"Reichert, Bayer and Kohler",29705 Anderson Alley,Oklahoma City,Oklahoma,73197,405-110-0281,9408428
Rau and Sons,91593 Old Gate Terrace,Boston,Massachusetts,2216,617-755-7094,9629563
Bechtelar-Kuhn,1 Clarendon Pass,Dayton,Ohio,45414,937-366-6815,9578150
Gislason-Abshire,1599 Independence Point,New York City,New York,10160,212-940-7082,3440552
Mueller-Johnston,41 Clarendon Drive,Oxnard,California,93034,805-813-5823,7348954
Jacobs LLC,102 Killdeer Circle,Peoria,Arizona,85383,602-775-1144,5089006
Pfannerstill-Hills,52149 Atwood Alley,Miami,Florida,33153,786-579-2193,3149900
Cartwright-Bartoletti,89 Buell Drive,Wilkes Barre,Pennsylvania,18706,570-805-3073,4090671
Hermiston Inc,0 Manitowish Avenue,Spokane,Washington,99205,509-180-6825,2178114
Kris-Wehner,24 Kings Circle,Chicago,Illinois,60686,312-182-1777,5990561
Gutmann-Reinger,5580 Lakeland Pass,Virginia Beach,Virginia,23454,757-220-1239,5670799
McKenzie-Greenholt,79 Anhalt Trail,Hollywood,Florida,33028,954-767-6063,4445315
Hirthe and Sons,2 Loeprich Lane,Kansas City,Missouri,64160,816-935-8309,4893831
Ward-Glover,682 Goodland Road,Battle Creek,Michigan,49018,269-575-3930,1144429
"Windler, Russel and Kuhn",70699 East Street,San Francisco,California,94164,415-462-4507,5240504
Herzog Group,282 Packers Circle,Minneapolis,Minnesota,55407,651-576-2140,6659975
Effertz-Lakin,2 Hansons Circle,Portland,Oregon,97216,503-467-9550,6180662
Hessel-Nitzsche,1000 Corben Alley,Washington,District of Columbia,20337,202-507-2748,4238074
Schaden-Oberbrunner,03 Chive Way,Grand Rapids,Michigan,49505,616-622-5110,7119204
Reynolds Group,0 Independence Place,Austin,Texas,78710,512-505-6817,3710359
Wilkinson and Sons,73551 Farwell Place,Albany,New York,12255,518-459-2843,6350413
Walker and Sons,8 Cordelia Alley,Las Vegas,Nevada,89135,702-713-2496,6722480
"Jenkins, Halvorson and Beahan",013 Sachtjen Road,Saint Louis,Missouri,63110,314-756-2614,9158387
"Schulist, Schimmel and Smith",5 Westport Park,Richmond,Virginia,23289,804-924-2388,492265
"Pollich, Prohaska and Purdy",0284 Ridge Oak Hill,San Jose,California,95138,408-236-9709,4707088
Hoppe-Kulas,478 Thackeray Alley,Levittown,Pennsylvania,19058,267-829-9101,22833
"Lowe, Willms and Dietrich",14 Dottie Trail,New Orleans,Louisiana,70187,504-535-2543,495800
Davis-Durgan,0 Del Sol Terrace,Memphis,Tennessee,38119,615-174-9652,148904
"Hansen, Ebert and Abshire",8 Spenser Hill,Beaumont,Texas,77705,409-193-0486,2692196
"Howe, Heaney and Satterfield",63 Bluejay Avenue,San Antonio,Texas,78230,210-163-3385,7197266
"Brakus, Zulauf and McDermott",981 Carey Trail,Washington,District of Columbia,20016,202-746-0718,9066768
Nader-Quitzon,30 Havey Junction,San Antonio,Texas,78240,210-452-6788,7311670
"Pfeffer, Jaskolski and Gorczany",75808 Alpine Pass,Green Bay,Wisconsin,54305,920-865-8608,9245095
Lakin-Prohaska,1277 Badeau Place,Tallahassee,Florida,32399,850-701-3387,636929
Waelchi Inc,9504 Bunting Lane,Zephyrhills,Florida,33543,813-587-8314,7542228
Cormier-McClure,1 Farwell Park,Rochester,New York,14646,585-277-6962,772952
Stracke Group,53277 Rigney Avenue,Birmingham,Alabama,35225,205-355-0188,8299251
Bauch-Schneider,2 Shasta Avenue,Des Moines,Iowa,50330,515-470-3206,9697686
Zboncak Inc,15380 Cody Drive,Waltham,Massachusetts,2453,617-244-0266,2207960
Gutmann-Wuckert,04 Lerdahl Trail,Mobile,Alabama,36641,251-498-4478,7220465
"Torphy, Bernhard and Hirthe",3 Bowman Street,Buffalo,New York,14210,716-554-7915,6063059
"Cole, Zieme and Champlin",36766 Towne Crossing,Saint Paul,Minnesota,55127,651-273-3306,4377186
"Glover, VonRueden and Cronin",685 Crescent Oaks Crossing,Cumming,Georgia,30130,706-558-7723,8165071
Veum-Barrows,835 4th Trail,Tucson,Arizona,85754,520-744-8642,415996
"Koch, Larson and Dare",61293 Declaration Circle,Hartford,Connecticut,6105,860-871-3016,437463
Wisoky-Stoltenberg,33094 Westend Place,Kansas City,Missouri,64153,816-295-3505,240987
Schuster-Wuckert,8389 Badeau Trail,Washington,District of Columbia,20525,202-603-0889,8392707
"Pollich, Huels and Klein",22222 Southridge Hill,Alexandria,Virginia,22301,703-160-3105,8630346
Kris and Sons,39 Kenwood Crossing,Los Angeles,California,90005,818-525-7158,547216
Wisoky-Kris,101 Kim Court,Pasadena,California,91186,626-795-0326,7752010
Welch-Jacobi,92840 Caliangt Way,Charlotte,North Carolina,28272,704-657-3527,7248492
Reichel-Mitchell,56634 Dovetail Alley,Gadsden,Alabama,35905,256-787-5090,6116272
"Wehner, Tremblay and Murphy",279 Pepper Wood Way,Newton,Massachusetts,2458,857-924-5860,8469297
McDermott LLC,273 Aberg Way,Akron,Ohio,44329,330-739-7605,3401001
Strosin Inc,43804 Towne Circle,Phoenix,Arizona,85030,602-430-2951,6251559
Kirlin-Dibbert,0233 Meadow Ridge Junction,Brockton,Massachusetts,2405,508-368-7807,1969707
"Robel, Russel and Schaefer",5 Stoughton Pass,Cincinnati,Ohio,45233,513-675-1217,7719158
Okuneva Inc,6 Swallow Alley,Dallas,Texas,75287,469-981-4886,1490431
"Hessel, Sanford and Bailey",469 Cascade Alley,Jackson,Mississippi,39210,601-298-1709,7984292
Wisozk Group,6 Bluestem Avenue,Atlanta,Georgia,30368,404-770-9143,5842150
Predovic-Cremin,1 Little Fleur Avenue,Winston Salem,North Carolina,27105,336-166-4746,7731957
"Nader, Spinka and Christiansen",208 5th Park,Philadelphia,Pennsylvania,19172,215-511-9357,4979287
Cummerata Group,48195 Arrowood Terrace,Dallas,Texas,75387,214-729-9908,4377245
Considine Group,81290 Messerschmidt Terrace,Lansing,Michigan,48956,517-797-0583,8934478
"Steuber, Leuschke and Herman",727 Esch Lane,Des Moines,Iowa,50362,515-886-7411,4370054
Bednar-Hoeger,826 Russell Road,Reading,Pennsylvania,19605,610-374-0130,2224781
Feeney-Berge,0 Melvin Way,Houston,Texas,77240,713-175-4486,2822531
"Shanahan, Ernser and Reinger",6974 Mariners Cove Drive,San Antonio,Texas,78285,210-993-2278,1127106
Carter-Grady,2 Butterfield Circle,Tallahassee,Florida,32314,850-960-8280,4136170
"Herzog, Jones and Kuphal",72 Spaight Trail,Clearwater,Florida,34615,727-593-3907,8357390
Johns-Williamson,93 Onsgard Place,Minneapolis,Minnesota,55402,763-784-0919,5684222
Green-Swaniawski,110 Hermina Hill,Canton,Ohio,44720,330-829-1582,550578
Marks-Lubowitz,49206 Jana Pass,Charlotte,North Carolina,28242,704-592-5879,3259419
Yundt-Goodwin,5 Arrowood Road,Amarillo,Texas,79165,806-923-8416,2297071
"Quigley, Schiller and Greenholt",6 3rd Drive,San Jose,California,95138,408-531-3012,9321595
Kuhn Inc,00636 Westend Parkway,Des Moines,Iowa,50393,515-474-0036,4949516
Wunsch-Schimmel,5822 Waxwing Pass,Saint Louis,Missouri,63121,314-376-9673,9590758
Emard LLC,301 Warrior Street,Falls Church,Virginia,22047,571-722-6354,4995157
Howe LLC,9125 Carioca Hill,Lexington,Kentucky,40524,859-476-1576,4235007
Lesch-Kessler,17602 Calypso Avenue,Colorado Springs,Colorado,80905,719-180-6229,9451193
Turner Inc,079 Dawn Crossing,Bakersfield,California,93399,661-254-2565,3973447
Nicolas-Sauer,06 Gateway Way,Greensboro,North Carolina,27415,336-455-2641,6723478
Gleichner LLC,665 Maywood Street,Greensboro,North Carolina,27409,336-729-9091,4650612
"Mayer, Hahn and Streich",4 Kim Crossing,Arlington,Texas,76016,972-355-9298,7489639
"Hartmann, Dickinson and Bins",51138 Dahle Park,Durham,North Carolina,27717,919-582-7073,7000958
Hartmann-Blanda,89991 Loftsgordon Court,North Hollywood,California,91616,213-350-0614,1285668
Connelly Inc,260 Spohn Street,Bakersfield,California,93399,661-276-8340,9421117
Price Inc,12 Evergreen Lane,Anchorage,Alaska,99599,907-152-2105,9883453
Pacocha LLC,439 Michigan Junction,Philadelphia,Pennsylvania,19172,215-248-5445,8903503
Hansen LLC,0554 Norway Maple Lane,Fort Worth,Texas,76134,817-663-5435,7177994
"Kunze, Grady and O'Reilly",619 Fremont Drive,San Antonio,Texas,78285,210-453-2385,6016366
Koepp-Walter,27 Nancy Center,Dayton,Ohio,45440,937-159-0346,5903401
"Fadel, Corkery and Gerhold",075 Johnson Place,Salt Lake City,Utah,84125,801-232-7675,2084475
Ritchie-Schaefer,2362 Elka Circle,El Paso,Texas,79905,915-470-0762,1153533
"Bogisich, Kutch and Anderson",108 Dawn Pass,Richmond,Virginia,23208,804-630-3029,157021
"Botsford, Fahey and Leffler",50159 Dorton Way,Wichita Falls,Texas,76310,940-812-5812,1230700
Bradtke Inc,103 Lakewood Drive,Dayton,Ohio,45440,937-310-0288,8013001
Hettinger LLC,07 Veith Point,Pasadena,California,91109,818-411-2248,6827577
Morissette and Sons,43 Nevada Junction,Baltimore,Maryland,21275,410-673-6057,2308698
Ritchie-Schroeder,38505 Bonner Street,Rochester,New York,14619,585-101-9765,4665819
Weissnat-Schoen,18 Merrick Lane,Crawfordsville,Indiana,47937,765-570-7048,3664354
Emmerich and Sons,67451 Kipling Hill,Birmingham,Alabama,35242,205-205-8331,6815458
Emard LLC,197 Sachs Avenue,Hartford,Connecticut,6105,860-745-5885,4725809
Haag Group,5944 Steensland Point,Brooklyn,New York,11247,212-923-1843,7234290
Hills LLC,932 Moland Parkway,Louisville,Kentucky,40205,502-998-8981,9585920
"Pfeffer, Runolfsson and Becker",6 Esker Avenue,Rochester,New York,14604,585-216-6722,1892973
Franecki-Cummings,9 Oneill Plaza,Huntington,West Virginia,25770,304-523-6233,4026696
Fisher-Schoen,41935 Ilene Pass,Fort Worth,Texas,76134,817-399-1674,5580313
"Beahan, Gerhold and Dach",07 Cascade Pass,Portland,Oregon,97271,971-984-9412,3245337
Donnelly-Jenkins,53609 Westridge Trail,San Antonio,Texas,78245,830-668-0290,2425903
"Torphy, Stark and Willms",77952 Stuart Street,San Bernardino,California,92415,909-841-2969,9689470
Crooks LLC,2 Northfield Place,Brooklyn,New York,11231,212-799-7942,108594
Terry Group,9 Dorton Way,New Haven,Connecticut,6538,203-440-2358,6365442
Turner Group,87598 Independence Crossing,Jackson,Tennessee,38308,731-343-9180,5157105
"Rath, Gislason and Smith",266 Becker Court,Lake Worth,Florida,33462,561-126-4257,7097199
Friesen Inc,368 Amoth Road,Warren,Michigan,48092,810-682-3794,2541623
"Jaskolski, Rau and Zieme",48 Crownhardt Road,Fresno,California,93786,559-662-1222,2091507
Torp Inc,7560 Grover Lane,Orlando,Florida,32868,407-607-7613,6934594
Casper-Renner,0 Golf Course Drive,Boise,Idaho,83722,208-279-9610,8953871
Dietrich-McCullough,14456 Hoffman Alley,Houston,Texas,77095,281-666-2696,3524657
Hahn-Rodriguez,382 Browning Terrace,Phoenix,Arizona,85053,602-494-7412,6311709
Veum Inc,182 Lindbergh Trail,Dayton,Ohio,45419,513-475-7293,3320817
Wisozk-Abbott,74 Warrior Crossing,Atlanta,Georgia,30311,404-885-7929,2801423
Swaniawski-Kuhlman,367 Maywood Crossing,Fresno,California,93740,559-185-0466,3972306
Rau-Davis,10925 Mesta Court,Gadsden,Alabama,35905,256-971-6627,5002037
"Jenkins, Hayes and Kertzmann",237 Sachtjen Drive,Grand Junction,Colorado,81505,970-212-3393,6503239
Rogahn-Watsica,5592 Vermont Crossing,Houston,Texas,77070,832-155-6650,5665734
Dickinson Group,8 Daystar Circle,Gatesville,Texas,76598,254-536-8015,3762022
Crona-McDermott,04380 Canary Trail,El Paso,Texas,88589,915-176-3217,4025585
Mayert LLC,039 Norway Maple Point,Pasadena,California,91199,626-503-7335,3935927
Spencer-Kilback,057 Knutson Park,Spartanburg,South Carolina,29305,864-393-6579,4981362
"Renner, Kozey and Wilkinson",88 Schiller Place,Anchorage,Alaska,99507,907-879-3576,6749815
"Quigley, Kertzmann and Lang",5003 Green Ridge Park,Richmond,Virginia,23289,804-816-1196,3192342
"Carroll, Donnelly and Abshire",4 Almo Center,Simi Valley,California,93094,805-851-1894,8988884
Funk-Armstrong,95 Parkside Junction,Corpus Christi,Texas,78465,361-755-2421,8214890
Wiza Inc,939 Stone Corner Junction,Las Vegas,Nevada,89155,702-427-7366,4556100
Moore-Ullrich,63 Bultman Alley,Tucson,Arizona,85754,520-532-1996,661181
Roob-Waelchi,954 Holy Cross Point,Hartford,Connecticut,6140,860-481-5210,3878207
Hansen-Jones,76 Bultman Alley,Miami,Florida,33283,305-601-5486,8017875
"Bins, Parker and McLaughlin",080 Ronald Regan Hill,Norfolk,Virginia,23504,757-195-1862,443303
Marvin Group,12480 Carberry Lane,Austin,Texas,78703,512-388-5911,2015487
"Little, Prohaska and Haag",21 School Hill,Gary,Indiana,46406,219-623-7606,6832186
"Parker, Will and Sipes",0937 7th Way,Las Vegas,Nevada,89145,702-892-2452,7164547
Hodkiewicz and Sons,76 Dapin Street,Boston,Massachusetts,2216,617-403-1510,6853339
"Schumm, Kautzer and Jacobson",988 Bobwhite Place,Washington,District of Columbia,20520,202-408-8030,72470
Shanahan-Gaylord,80 Prairie Rose Center,Mesa,Arizona,85210,602-143-5069,6340598
"O'Reilly, Oberbrunner and Adams",4 Goodland Pass,Greenville,South Carolina,29610,864-519-8815,1491865
Jakubowski-Senger,8 Dahle Drive,Redwood City,California,94064,650-181-1279,305384
Macejkovic-Haley,3 Loeprich Point,Fairbanks,Alaska,99709,907-966-1798,5754633
Johnson-Quitzon,523 Arizona Way,Tuscaloosa,Alabama,35405,205-924-5722,793408
Hansen-Renner,760 Pine View Junction,Wichita,Kansas,67205,316-425-1442,5074307
Baumbach Inc,0 Porter Road,Jamaica,New York,11447,917-971-4657,6234110
Weissnat-Zulauf,2 Anniversary Plaza,Oxnard,California,93034,805-819-7567,5806072
Reichel LLC,28 Onsgard Junction,Jackson,Mississippi,39210,601-413-1883,1435216
Koepp-Mante,4580 Crowley Avenue,Toledo,Ohio,43699,419-968-4888,5758948
"Torphy, Hoeger and Hauck",566 Hollow Ridge Drive,Springfield,Illinois,62718,217-515-5067,3294062
"Hilll, Effertz and Kuhlman",70587 Vidon Crossing,New Orleans,Louisiana,70116,504-262-6404,8373818
"Collier, West and Cummings",7856 Bluestem Pass,San Diego,California,92186,619-129-2675,5583313
Schuppe Inc,346 Kenwood Road,Montgomery,Alabama,36195,334-328-3133,7958669
"Schmeler, O'Hara and Brakus",6326 Crescent Oaks Street,Denver,Colorado,80299,303-424-3043,7617684
"Baumbach, Breitenberg and Daugherty",5 Evergreen Plaza,Pensacola,Florida,32520,850-444-0009,1810717
Barton-Toy,763 Glendale Drive,Des Moines,Iowa,50936,515-214-4773,4576507
"Runolfsson, Hills and Keebler",11 Debs Plaza,Lexington,Kentucky,40510,859-370-9903,8981940
Pouros and Sons,6 Bashford Avenue,Midland,Texas,79710,432-633-6187,8449919
Volkman LLC,3 Portage Crossing,Greenville,South Carolina,29610,864-245-0118,4489209
"Stiedemann, Doyle and Rempel",085 Burrows Center,Melbourne,Florida,32941,321-738-0536,9709827
Ferry and Sons,169 Katie Junction,Bronx,New York,10459,718-247-6258,8924403
Ziemann LLC,79 Sloan Point,New York City,New York,10249,212-549-1119,6439098
Rowe-Harris,1 Jackson Trail,Sacramento,California,95813,916-654-7605,7437489
Goldner-Balistreri,03136 International Circle,Savannah,Georgia,31422,912-471-1207,8442626
Rosenbaum Group,951 Northport Center,Birmingham,Alabama,35215,205-118-8192,8443988
"Mraz, Witting and Lebsack",27 Sherman Junction,Tucson,Arizona,85737,520-557-2322,9231362
"Senger, Schultz and Bernier",7315 Scott Lane,Fort Myers,Florida,33906,239-591-0643,9481196
Lakin Inc,42063 Pearson Street,Bakersfield,California,93305,661-601-5389,7306449
Boyle-VonRueden,29 Elmside Parkway,Atlanta,Georgia,30368,404-737-6181,734909
Pacocha-Kirlin,95 Sugar Drive,Tulsa,Oklahoma,74108,918-872-8438,8902339
"Monahan, Christiansen and Kihn",026 Anhalt Drive,Indianapolis,Indiana,46295,317-558-6032,8500838
"Rau, Terry and Runolfsdottir",55 Nancy Park,Austin,Texas,78764,512-793-0068,9687310
Cartwright LLC,6 Mccormick Parkway,Watertown,Massachusetts,2472,617-708-1180,9492977
"Feeney, Hackett and Emmerich",81538 Talmadge Street,Shawnee Mission,Kansas,66215,913-880-5716,2435635
"Beer, Mraz and Nienow",1094 Blue Bill Park Hill,Clearwater,Florida,33758,813-759-3186,204470
"Lockman, Leannon and Cassin",7613 Summerview Park,Dallas,Texas,75310,214-790-5175,5083946
Harvey Group,8 Hanover Avenue,Merrifield,Virginia,22119,571-891-7740,9992768
Johnson and Sons,786 Glacier Hill Lane,San Antonio,Texas,78205,210-324-2804,6856102
"Harvey, Rice and Schuppe",0 Fairfield Center,Suffolk,Virginia,23436,757-841-2790,9964693
Halvorson Group,662 Garrison Circle,Washington,District of Columbia,20005,202-857-4715,4087067
Rodriguez-O'Connell,97 Northfield Circle,Philadelphia,Pennsylvania,19125,215-997-3936,694508
Larson Inc,55782 Transport Place,Juneau,Alaska,99812,907-708-0422,47089
"Okuneva, Streich and Hickle",172 Muir Road,Washington,District of Columbia,20404,202-778-1077,2860434
Oberbrunner Inc,45 Hollow Ridge Hill,Milwaukee,Wisconsin,53210,414-943-0713,1345368
Herzog Group,545 Basil Avenue,Springfield,Illinois,62764,217-257-2256,2399463
Morissette Group,0 Lillian Avenue,Fort Smith,Arkansas,72905,479-533-0683,3507672
Anderson Inc,68334 Green Plaza,Durham,North Carolina,27717,919-351-1573,3246038
"Eichmann, Gleichner and Mosciski",15123 Lyons Court,Raleigh,North Carolina,27658,919-291-8481,6150317
Spinka LLC,043 Crownhardt Park,Mobile,Alabama,36641,251-717-9992,7968332
Schamberger Inc,83 Thackeray Court,Vancouver,Washington,98687,360-179-7769,268153
Rath Group,84761 Swallow Way,El Paso,Texas,79916,915-154-9594,1815502
"Schultz, Mayert and Thompson",53 Forest Center,Wilmington,Delaware,19886,302-390-1756,2523309
"Bahringer, Kovacek and Parisian",262 Heath Drive,El Paso,Texas,79984,915-667-5699,712045
Towne-Flatley,172 Schlimgen Hill,Washington,District of Columbia,20442,202-983-5736,2247234
Anderson Group,959 New Castle Point,West Palm Beach,Florida,33405,772-628-8707,6995730
Cole-Padberg,0170 Bunting Trail,Albuquerque,New Mexico,87190,505-432-6594,3376510
Weimann LLC,657 Pennsylvania Place,Evanston,Illinois,60208,847-616-6043,6079632
Rath-Farrell,13469 Becker Point,Norwalk,Connecticut,6854,203-852-9740,4261884
"Windler, Gutkowski and Heidenreich",484 Mosinee Junction,Bellevue,Washington,98008,206-194-1591,3189929
Mraz-Hilll,13 Sunfield Point,College Station,Texas,77844,979-280-7412,7772349
Marks-Oberbrunner,2 Delaware Drive,Dayton,Ohio,45408,937-838-2955,2436194
Reinger Group,78 Heath Junction,Fresno,California,93721,559-176-8730,3425324
Barrows LLC,0857 Hudson Center,Dallas,Texas,75353,214-329-9360,6561482
Wolf-Schmidt,8832 Pennsylvania Avenue,Louisville,Kentucky,40250,502-919-8493,1326020
Spinka-Hettinger,24 Lindbergh Parkway,Providence,Rhode Island,2905,401-331-6453,3035555
Kihn-Cormier,38846 Kim Road,Brooklyn,New York,11236,718-802-6678,2931010
Stamm and Sons,17940 Northridge Hill,Oakland,California,94627,510-777-8851,9174876
Cronin and Sons,4 Loftsgordon Street,Vero Beach,Florida,32964,772-305-0240,9938469
Frami-Turner,9521 Donald Alley,Kansas City,Missouri,64114,816-450-3916,157674
Quitzon-Quitzon,1258 Summit Lane,Washington,District of Columbia,20099,202-832-0270,2380662
Schmeler-Klein,7517 Chinook Plaza,Manchester,New Hampshire,3105,603-214-3295,6075841
Luettgen-Pouros,02 Milwaukee Crossing,Richmond,California,94807,510-817-4692,9482923
D'Amore-Cronin,8253 Karstens Hill,Lafayette,Louisiana,70593,337-922-8431,2188892
Hansen-Mohr,1 Darwin Park,Brooklyn,New York,11225,718-538-7426,8275380
"Lynch, Mertz and Lebsack",070 Oxford Junction,Des Moines,Iowa,50320,515-967-1677,4070496
"Schmitt, Dickinson and Kessler",82027 Union Place,Fresno,California,93773,559-505-7072,6444831
"Donnelly, Gorczany and Gutmann",52999 Redwing Center,Lakeland,Florida,33811,863-656-7593,5543625
Graham and Sons,87 Onsgard Road,Salt Lake City,Utah,84110,801-345-0053,4482958
Feeney-Grimes,5 Towne Terrace,Albany,New York,12262,518-760-7351,6437710
"Hickle, Schulist and Hyatt",9020 Anzinger Crossing,Orlando,Florida,32835,321-201-4388,2703186
"Macejkovic, Lockman and Ward",21 Shasta Crossing,Raleigh,North Carolina,27635,919-117-5323,9084442
Mraz Group,68540 Mcguire Pass,Washington,District of Columbia,20062,202-608-6759,7312637
Simonis-Cormier,6243 Surrey Avenue,Madison,Wisconsin,53710,608-972-7229,1770907
Murray-Block,7752 Monument Trail,Washington,District of Columbia,20409,202-952-4599,831748
"Emard, Windler and Heathcote",58607 Cambridge Circle,Young America,Minnesota,55564,952-688-0289,7097505
Zulauf-Gerlach,1 Katie Hill,New Orleans,Louisiana,70116,504-650-8291,5568312
Erdman LLC,6381 Helena Point,Salinas,California,93907,831-828-4978,6732470
"Bednar, Casper and Torp",670 Erie Trail,New York City,New York,10024,212-842-7296,2485310
"Rippin, Kunze and Bernier",26 Orin Way,Little Rock,Arkansas,72215,501-381-2878,3786212
Stamm and Sons,71201 Graceland Parkway,Columbus,Ohio,43215,513-872-3831,2779727
"Rempel, Kautzer and Conroy",0151 Center Circle,Houston,Texas,77040,281-620-2894,7054732
Bode-Hirthe,65332 Fallview Road,Des Moines,Iowa,50315,515-596-0674,2446491
"Wuckert, Mills and Keebler",1 Michigan Circle,North Hollywood,California,91616,213-503-1245,7751635
"Carroll, Rau and Kulas",1 Sugar Way,Alhambra,California,91841,626-807-0574,6103485
"Haley, Lemke and Rutherford",5 Debs Place,West Palm Beach,Florida,33421,561-259-4563,6414789
Collins-MacGyver,27 Westridge Drive,Bakersfield,California,93386,661-786-6885,3603638
"Williamson, Hartmann and Brekke",056 American Terrace,Atlanta,Georgia,31196,404-831-1830,6929872
Lind-Keeling,57766 Logan Alley,Vancouver,Washington,98664,360-449-6891,7470966
"Collins, Howell and Beahan",49 Becker Pass,Houston,Texas,77020,713-652-6935,7658198
Douglas-DuBuque,5 Westerfield Drive,Houston,Texas,77055,713-604-5466,7040668
"Bernier, Hessel and Bernier",13197 Mallory Court,Jamaica,New York,11407,516-101-1227,4352507
Robel Group,196 Thompson Crossing,Tacoma,Washington,98464,253-832-9808,7327142
"Windler, Waelchi and Leffler",0 Di Loreto Terrace,Sacramento,California,94237,916-934-6348,893709
"Kuhic, Reilly and Howell",329 Summit Street,Long Beach,California,90805,310-572-3476,1449899
Borer Inc,89 Lukken Avenue,Fayetteville,North Carolina,28314,910-901-2156,9685327
Hammes Inc,70976 Dexter Way,Greensboro,North Carolina,27425,336-111-1165,8398287
Raynor-Gusikowski,25 Hudson Place,Saginaw,Michigan,48604,989-163-0655,8196929
Ankunding and Sons,52116 Jay Alley,Lincoln,Nebraska,68517,402-251-1573,9935276
Heidenreich-Schmitt,362 Miller Alley,Tulsa,Oklahoma,74103,918-505-3761,6865139
Fadel-Corwin,5254 Utah Trail,Davenport,Iowa,52809,563-137-8602,4218776
"Windler, Raynor and Stoltenberg",48 Loomis Park,Providence,Rhode Island,2905,401-881-5264,351300
Jones LLC,343 Hanson Drive,Washington,District of Columbia,20436,202-244-7772,521256
"Kassulke, Champlin and Funk",7940 Brown Lane,Indianapolis,Indiana,46221,317-166-6828,3298370
Wisozk-Maggio,680 Haas Alley,Riverside,California,92513,951-552-9883,7229929
Greenfelder-Mohr,4368 Messerschmidt Drive,Crawfordsville,Indiana,47937,765-814-6156,3106068
Kemmer Group,0 Butterfield Pass,Brooksville,Florida,34605,352-693-4558,9602935
"Kris, Deckow and Herzog",6431 Farragut Circle,Fort Wayne,Indiana,46825,260-801-4679,7012731
Armstrong-Spencer,4 Becker Road,Aurora,Colorado,80044,303-689-0904,4055401
Quitzon-Marks,1855 Northridge Parkway,Austin,Texas,78783,512-856-7055,7096297
Pfannerstill Group,9 Hollow Ridge Terrace,Florence,South Carolina,29505,843-312-6540,782102
Balistreri-Torphy,1 Prairieview Terrace,San Francisco,California,94147,415-674-0763,3343017
Willms-Weimann,3 Pond Plaza,Pittsburgh,Pennsylvania,15261,412-362-2425,1096694
Luettgen-Lehner,07 Shasta Avenue,Syracuse,New York,13210,315-653-3131,2086283
"Block, Hermiston and Fahey",88230 6th Junction,Shreveport,Louisiana,71115,318-284-8986,2353640
Gerhold-Feest,75 Calypso Pass,Dulles,Virginia,20189,571-335-0197,931746
Bradtke-Wisoky,6911 Vidon Hill,Houston,Texas,77223,713-606-7997,949019
Roob-Feeney,3301 Mcguire Circle,Houston,Texas,77015,281-121-4653,6422055
Predovic and Sons,8 Packers Park,South Bend,Indiana,46620,574-532-6315,3077763
Farrell Group,35877 5th Alley,Columbia,South Carolina,29215,803-290-3442,7092391
"Rath, Smitham and Kuhlman",08170 Pearson Avenue,Tucson,Arizona,85725,520-557-2482,871214
Swift-Jast,64 7th Trail,El Paso,Texas,79934,915-522-6540,693108
Feest LLC,2676 Northfield Point,Akron,Ohio,44321,330-510-9498,5702346
"Ortiz, Daugherty and Fay",80 Mcbride Trail,Bronx,New York,10474,718-845-2638,2953618
"Kilback, Towne and Weber",6867 Loftsgordon Crossing,El Paso,Texas,88530,915-751-5829,7571810
Smith-Jacobson,49 Doe Crossing Hill,Conroe,Texas,77305,936-519-4372,6927589
Sanford-Erdman,311 Memorial Pass,Levittown,Pennsylvania,19058,267-661-9036,1436173
"Jast, Stark and Toy",074 Kingsford Parkway,Peoria,Illinois,61605,309-232-7114,136113
Lueilwitz-Zulauf,8167 Mallard Center,Oceanside,California,92056,858-692-3201,3214434
Denesik-Lakin,52980 Nova Drive,Baton Rouge,Louisiana,70815,225-344-2847,2063522
Raynor-Lubowitz,7 Claremont Trail,Fort Lauderdale,Florida,33325,954-524-6250,4884274
Wehner-Carroll,19750 Summit Terrace,Oakland,California,94627,510-557-5912,1284491
Legros-Christiansen,185 Starling Court,Houston,Texas,77065,281-260-6150,6723235
"Bruen, Thiel and O'Hara",0212 2nd Drive,Bridgeport,Connecticut,6673,203-806-4686,3691609
Kassulke and Sons,3574 Quincy Trail,Baltimore,Maryland,21216,410-478-7146,3968265
Beer Group,4591 Darwin Point,Missoula,Montana,59806,406-538-4516,6772331
"Becker, Langworth and Kuhic",8 Dennis Point,Albuquerque,New Mexico,87201,505-152-0796,4984499
Conn-Steuber,6 Northwestern Point,Sarasota,Florida,34238,941-634-2904,946404
"Quitzon, Turner and Hyatt",7 Artisan Lane,Topeka,Kansas,66629,785-491-9217,7755837
"Tremblay, Larkin and Zieme",47 Tony Place,Las Vegas,Nevada,89130,702-620-1340,2575332
Labadie-Dickens,746 Bartelt Lane,El Paso,Texas,88546,915-370-6325,4032490
Hilpert-Kuhlman,69 Village Park,Sarasota,Florida,34276,941-191-2751,1903031
Berge-Shields,865 Riverside Lane,Lincoln,Nebraska,68510,402-504-9961,2968176
"Schaden, Beatty and Schamberger",4786 Tony Junction,Norfolk,Virginia,23504,757-763-9629,9658264
Parisian-Reinger,48 Aberg Terrace,Gadsden,Alabama,35905,256-736-4432,8859986
"Tromp, Walker and Effertz",923 Dayton Lane,Great Neck,New York,11024,516-424-6000,7622924
Lynch LLC,23 Monument Circle,Springfield,Massachusetts,1152,413-921-0880,4034972
Wiza-Green,418 Chinook Park,Dallas,Texas,75236,469-773-2085,4467837
Koelpin-Zieme,88 Havey Way,Albuquerque,New Mexico,87180,505-663-7345,6353449
King-Barrows,76 Sunbrook Lane,Washington,District of Columbia,20205,202-399-5057,5035918
Kutch Group,885 Hoard Avenue,Boston,Massachusetts,2124,617-456-2427,8802133
"Farrell, Jones and O'Reilly",8452 Arizona Park,Fullerton,California,92640,559-905-1253,1830572
Mueller-Kuhn,12 Washington Park,Clearwater,Florida,34615,727-300-1858,5215649
Lemke-Haley,067 Hermina Drive,Chicago,Illinois,60604,773-394-7467,5098965
"Wunsch, Spinka and Koelpin",78976 Melody Trail,Shawnee Mission,Kansas,66225,913-566-0540,6707023
Ullrich-Schmidt,17 Iowa Place,Houston,Texas,77240,713-374-9019,2681637
"Kulas, Borer and Streich",7 Haas Road,Pittsburgh,Pennsylvania,15274,412-462-8046,5177509
Mueller-Quigley,1 Eggendart Place,Washington,District of Columbia,20205,202-530-4682,2972494
"Abbott, Collins and Reinger",0955 Novick Avenue,Tucson,Arizona,85754,520-356-6072,3295875
Beer Inc,7017 Oneill Alley,Panama City,Florida,32412,850-481-3223,1746917
Bayer Group,81825 Sunnyside Point,Los Angeles,California,90071,310-215-9659,8594402
"Klein, Nikolaus and Kessler",129 Center Lane,Gainesville,Florida,32605,352-719-8728,7057906
Friesen Inc,874 Old Shore Crossing,Dallas,Texas,75241,469-653-2646,6234935
Gaylord-Hegmann,95 Warrior Pass,Anaheim,California,92805,310-156-7674,9881786
Daniel-Torp,17159 Mockingbird Pass,Dallas,Texas,75231,469-611-4391,5700819
Schmeler-Stracke,0449 Laurel Road,Washington,District of Columbia,20238,202-613-1935,7021727
Hansen Inc,432 Sauthoff Terrace,Corpus Christi,Texas,78470,361-709-5705,2931577
Gleason-Mills,5 Fallview Trail,Hayward,California,94544,925-197-1665,5284552
Hoeger and Sons,8 Talisman Junction,Columbia,South Carolina,29220,803-214-1121,7067840
Tremblay Group,6512 2nd Drive,Rochester,New York,14604,585-718-6771,1884560
Trantow Group,8 Iowa Court,Lexington,Kentucky,40510,859-290-1190,7679210
Koss-Wunsch,25967 Sauthoff Trail,Santa Fe,New Mexico,87505,505-281-1919,2593934
Lynch and Sons,47727 Buell Alley,New Haven,Connecticut,6505,203-253-6715,240300
Bayer Inc,5 Everett Parkway,Pittsburgh,Pennsylvania,15215,412-356-3745,641023
Kerluke and Sons,488 Kennedy Park,Miami,Florida,33283,305-559-2195,4367740
Kuhn-Anderson,606 Mccormick Pass,Bakersfield,California,93381,661-242-2317,753795
"Reynolds, Koch and Wyman",59 Arrowood Parkway,San Diego,California,92115,619-328-3680,4458169
"Pollich, Jaskolski and O'Hara",39447 Sachtjen Pass,Topeka,Kansas,66617,785-989-5190,516418
"Runolfsdottir, Huels and Leuschke",0029 Waywood Way,Charlotte,North Carolina,28225,704-430-7728,2946562
Ritchie and Sons,5607 3rd Plaza,Staten Island,New York,10310,718-389-5482,9933887
Gaylord LLC,4 Warner Place,Murfreesboro,Tennessee,37131,615-563-8466,1494761
Mayer-Kling,6 Pleasure Court,Houston,Texas,77293,281-960-3322,2670322
Fisher Inc,723 Warner Park,Lubbock,Texas,79405,806-683-6073,9591070
Boyer and Sons,73 Jana Lane,Erie,Pennsylvania,16550,814-716-3226,8938436
Marquardt-Rau,30 Bunting Road,San Francisco,California,94159,415-664-9058,7465201
"Torp, Huels and Kerluke",1360 Stuart Circle,Madison,Wisconsin,53790,608-567-6092,8798488
"Schaefer, Kuhlman and Steuber",54 Rigney Place,Berkeley,California,94705,510-623-1954,5296751
Adams-Gibson,6 Claremont Park,Fort Lauderdale,Florida,33305,954-896-3990,8074177
"Kassulke, Price and Nitzsche",8344 Ramsey Court,Memphis,Tennessee,38197,901-290-7945,936983
Ankunding-Hoeger,07040 Rockefeller Pass,Garland,Texas,75049,214-530-4903,9623893
Metz-Bins,99 Cambridge Street,Evansville,Indiana,47732,812-697-7568,2030613
"Parker, Considine and Parisian",09 Judy Court,Omaha,Nebraska,68197,402-589-5960,303458
"Ryan, Fisher and Wolf",81332 Arrowood Terrace,Saint Paul,Minnesota,55146,651-397-4243,7292641
Ernser-Littel,9 Anderson Place,Phoenix,Arizona,85053,602-829-4289,4606311
Feil-Jaskolski,464 Towne Court,New York City,New York,10125,212-626-0551,6990813
Daugherty-Hoeger,574 Orin Street,Riverside,California,92505,909-151-2091,7868488
"Hansen, Schowalter and Padberg",50707 Sherman Drive,Decatur,Georgia,30089,678-626-0400,1983965
Rempel Inc,00 Old Shore Center,Shreveport,Louisiana,71166,318-141-8901,4713108
"Gutmann, Kreiger and Jones",294 Grasskamp Terrace,Chicago,Illinois,60636,773-756-8150,5999995
Smith-Gleichner,3 Northland Hill,Cleveland,Ohio,44125,216-661-5032,4617314
"Jacobs, Schowalter and Bernier",43091 Arkansas Place,Edmond,Oklahoma,73034,405-717-2168,8890066
Johnston Group,407 Forest Junction,Toledo,Ohio,43699,419-211-6028,1096858
Fay LLC,0465 Dottie Drive,Burbank,California,91520,818-161-6362,385051
Boyle-Hudson,9401 Victoria Park,Madison,Wisconsin,53716,608-725-2455,2231292
"Blick, Barrows and Bailey",6 Homewood Park,Albuquerque,New Mexico,87140,505-422-5860,4999514
"Braun, Dicki and Anderson",91236 Forster Street,Pittsburgh,Pennsylvania,15225,412-382-3621,9115977
McLaughlin-Toy,6 2nd Circle,Cleveland,Ohio,44111,216-666-4648,9803707
Leffler-Moen,13125 Elmside Plaza,Springfield,Illinois,62764,217-429-5751,9070667
Kulas Inc,4 Starling Alley,Valley Forge,Pennsylvania,19495,484-751-8725,3280094
"Predovic, Lindgren and Schimmel",6918 3rd Pass,Jersey City,New Jersey,7310,973-609-0822,2816606
Reichert Inc,1 Victoria Park,Alexandria,Virginia,22333,571-769-4712,1592787
Kuphal LLC,2293 Oak Terrace,Colorado Springs,Colorado,80920,719-617-8002,1231664
"Graham, Berge and Moen",399 Green Ridge Road,Naples,Florida,34102,941-311-8030,8873796
Robel-Jaskolski,5 Farmco Drive,Nashville,Tennessee,37205,615-330-7252,9342316
"Lindgren, Crona and Bechtelar",04817 Roth Crossing,Orlando,Florida,32825,321-183-9322,1967680
"McGlynn, McGlynn and Botsford",19784 Briar Crest Park,Jackson,Mississippi,39236,601-648-8775,309572
Denesik Inc,77 1st Crossing,Chicago,Illinois,60636,773-644-3672,4023487
"Hartmann, Kohler and Johnston",4 Daystar Park,Cleveland,Ohio,44185,216-497-9923,7217601
Steuber-Schaefer,10892 Browning Trail,Joliet,Illinois,60435,815-214-6036,7333143
"Schimmel, Green and Hilll",7234 Morrow Alley,Philadelphia,Pennsylvania,19115,267-196-5999,8561926
Walter LLC,09032 Pepper Wood Circle,Louisville,Kentucky,40233,502-685-0279,2107303
Quigley Group,55 Melvin Park,Charlotte,North Carolina,28299,704-155-9462,4916429
Purdy-Hartmann,5 Doe Crossing Circle,Salem,Oregon,97306,503-664-4207,4878425
Swaniawski-Pouros,8609 Amoth Court,Dallas,Texas,75241,469-568-9899,8896162
Runolfsson-Maggio,253 Dorton Avenue,Syracuse,New York,13210,315-328-6591,9885127
Schuppe-Corwin,10 Pearson Alley,Cleveland,Ohio,44111,216-741-6883,4497740
Sauer-Lakin,56 Mosinee Alley,Torrance,California,90510,818-969-6927,4438729
"Hintz, Cronin and Legros",4897 Springs Circle,Memphis,Tennessee,38104,615-102-8223,4597295
"Murray, Lang and Krajcik",0 Almo Trail,Charleston,West Virginia,25389,304-600-4405,4084857
Grimes-Dach,81 Mcbride Avenue,Jamaica,New York,11499,212-709-6157,2646013
"Lind, O'Kon and Skiles",18760 Mcguire Plaza,Trenton,New Jersey,8695,609-120-6406,9651532
Mueller-Douglas,063 Clarendon Court,Lincoln,Nebraska,68531,402-787-2206,2559869
Harris LLC,41880 Debra Junction,West Palm Beach,Florida,33421,561-968-3866,9284525
"Weissnat, Feil and Emard",40758 Granby Place,Baltimore,Maryland,21216,410-967-4127,7879268
Bogisich Inc,7 Farmco Plaza,Ocala,Florida,34479,352-822-5402,9187469
"Zulauf, Rowe and Predovic",04906 American Court,Shawnee Mission,Kansas,66205,913-631-6327,9365356
"Smith, Dickens and Corkery",2182 Elka Lane,Schenectady,New York,12325,518-848-7970,1129458
Metz-Koss,182 Dwight Lane,Bakersfield,California,93305,805-479-4190,4253099
Lynch-Monahan,41 Comanche Crossing,Washington,District of Columbia,20226,202-466-4424,4068793
"Glover, Waelchi and Wehner",1 Anniversary Trail,Montgomery,Alabama,36104,334-120-2592,1729401
Heaney Group,9 Saint Paul Crossing,Denver,Colorado,80241,720-820-8172,5026636
"Johnston, Lowe and Monahan",8419 Armistice Parkway,Des Moines,Iowa,50981,515-102-6932,8450397
Denesik and Sons,32948 Northfield Pass,Detroit,Michigan,48232,313-181-2971,1197833
Bode Group,85 International Way,Salt Lake City,Utah,84110,801-358-9721,9821650
"Hessel, Hickle and Johnson",6 Artisan Pass,New York City,New York,10034,917-711-9524,9880847
"Schroeder, Brekke and Fisher",72 Rigney Alley,Scottsdale,Arizona,85255,480-867-7256,9276108
Langosh-Jaskolski,434 Ludington Place,Tampa,Florida,33615,813-266-9237,460036
"Ferry, Fahey and Wolf",27493 Farmco Way,Washington,District of Columbia,20238,202-208-7005,2102688
"Kreiger, Champlin and Considine",58 Lukken Park,Saint Paul,Minnesota,55166,651-223-9164,9097943
"Swift, Nicolas and Kemmer",270 Lakewood Gardens Pass,Macon,Georgia,31210,478-256-8885,7845605
"Murazik, Swaniawski and Botsford",54 Golf View Junction,Washington,District of Columbia,20575,202-893-9614,928969
Ferry LLC,1 Arizona Hill,Philadelphia,Pennsylvania,19120,267-293-8430,9799801
Simonis-Conroy,8023 Pawling Circle,Charleston,West Virginia,25336,304-280-1452,4552721
"Schamberger, Parisian and Rutherford",3445 Boyd Pass,Milwaukee,Wisconsin,53277,414-921-1332,2911679
Padberg-McKenzie,3254 Golf Lane,Nashville,Tennessee,37235,615-644-7806,5700551
Rice LLC,42422 Algoma Drive,Des Moines,Iowa,50936,515-337-8896,7338097
Barrows-Hills,53148 Pennsylvania Hill,Corpus Christi,Texas,78426,361-913-8151,5554942
"Jones, Fisher and Zulauf",71 Talmadge Court,Milwaukee,Wisconsin,53205,262-461-3746,4371823
"Marquardt, Schulist and Olson",184 Norway Maple Drive,Kansas City,Missouri,64149,816-170-2710,4989020
"Bins, O'Keefe and Harvey",6 Roxbury Parkway,Wichita Falls,Texas,76310,940-813-2020,9882153
Runte-Ziemann,37 Helena Place,Killeen,Texas,76544,254-130-8399,7567539
Williamson-Effertz,12 Mcguire Hill,Lexington,Kentucky,40581,859-932-5009,4653982
"Koelpin, Buckridge and Hermiston",90022 Stang Drive,Houston,Texas,77250,713-164-7301,8936384
Kassulke Inc,5867 Fallview Crossing,Brooksville,Florida,34605,352-126-3651,3927856
Wiza-Medhurst,03384 Old Gate Point,Saint Louis,Missouri,63110,314-886-1928,6824928
Considine Inc,8254 Talisman Plaza,Charlotte,North Carolina,28225,704-975-0681,6595272
Cruickshank and Sons,073 Katie Road,Maple Plain,Minnesota,55579,952-761-9591,8527959
Lesch Group,0710 American Ash Plaza,Roanoke,Virginia,24020,540-683-8563,1781181
"Jaskolski, Aufderhar and Schmitt",349 Hovde Parkway,Grand Forks,North Dakota,58207,701-992-7834,5863789
Schuppe Group,264 Di Loreto Drive,Kansas City,Missouri,64190,816-329-9019,585244
"Maggio, Aufderhar and Torp",527 Comanche Center,Little Rock,Arkansas,72215,501-886-6922,8419389
"Ferry, Pacocha and Monahan",14 Londonderry Trail,Colorado Springs,Colorado,80935,719-852-3777,9202930
"Johnson, Nicolas and Schmidt",8066 East Point,Gadsden,Alabama,35905,256-725-6478,7406561
"Batz, Harber and Windler",38 Village Green Hill,Columbus,Georgia,31914,706-643-2133,5088826
Bayer-Zemlak,3471 Comanche Alley,Kansas City,Missouri,64144,816-119-8914,3284426
"Dare, Crooks and Purdy",67361 Sutherland Avenue,Birmingham,Alabama,35263,205-900-3212,4667392
"Bode, Keebler and Abshire",27 Superior Trail,Memphis,Tennessee,38197,901-424-8276,8387035
Bartell Inc,58469 Shelley Way,Elizabeth,New Jersey,7208,908-412-5985,3531294
"O'Reilly, Reichert and Treutel",71 International Street,Orange,California,92668,858-407-7818,1283422
"Fritsch, Weber and Brekke",6 Blaine Park,Newark,Delaware,19714,302-862-6214,9179977
Hagenes Inc,51547 Park Meadow Circle,Milwaukee,Wisconsin,53234,414-541-3208,8048508
Nader-Swift,47 Meadow Valley Road,Chicago,Illinois,60630,847-503-3192,9198180
Effertz Inc,126 Cordelia Place,Washington,District of Columbia,20226,202-581-5318,4408726
"Upton, Will and Nienow",019 Bowman Place,Suffolk,Virginia,23436,757-605-5857,3748643
"Lowe, Cruickshank and Kassulke",312 Prairie Rose Trail,Montgomery,Alabama,36104,334-314-6855,4377692
"Sipes, Kautzer and Reilly",41799 Hanover Parkway,Portland,Oregon,97211,503-902-9104,4967870
"Reynolds, Haley and Konopelski",354 Stoughton Drive,Waco,Texas,76796,254-295-9799,3753893
Goodwin and Sons,47 Shoshone Trail,Corpus Christi,Texas,78410,361-401-0903,8967969
Stokes-Lehner,441 Johnson Avenue,Lincoln,Nebraska,68505,402-487-0725,3000588
"Bartoletti, Heidenreich and Heller",69131 Porter Pass,Fort Wayne,Indiana,46814,260-435-0997,3271862
Weimann-Murray,09632 Tomscot Road,New York City,New York,10165,917-489-7519,3396388
Collier-Roberts,5678 Dennis Crossing,Montgomery,Alabama,36125,334-544-7707,9016326
DuBuque-Moen,7732 Everett Street,New York City,New York,10029,917-217-0903,483795
Bahringer Group,861 Starling Pass,Salt Lake City,Utah,84130,801-446-7603,9531466
Oberbrunner-Corwin,77 Schiller Crossing,Denver,Colorado,80270,303-881-7957,1240247
"Bradtke, Gutmann and Abbott",4 Swallow Terrace,Colorado Springs,Colorado,80945,719-166-1557,8033653
"Windler, Corwin and Gleichner",7320 Ryan Alley,Tucson,Arizona,85720,520-333-7257,8555693
"Aufderhar, Beer and Heidenreich",212 Coleman Trail,West Palm Beach,Florida,33411,561-580-3822,7107570
Barton-Ernser,2 Fairview Terrace,Washington,District of Columbia,20591,202-278-6498,8335641
Hettinger-Schultz,2805 Badeau Hill,Washington,District of Columbia,20051,202-519-4307,3937572
Schultz and Sons,2199 Corscot Trail,Spring Hill,Florida,34611,352-485-6316,7962428
Bayer-Bernhard,760 Stephen Street,Washington,District of Columbia,20442,202-359-8075,9321104
Barton-Price,2 Brentwood Avenue,Jackson,Tennessee,38308,731-762-6223,3324064
"Fadel, Wyman and Watsica",02875 Maryland Hill,South Bend,Indiana,46614,574-708-4327,6789817
"Littel, Casper and Walter",11883 Holy Cross Drive,Los Angeles,California,90076,323-177-2230,5805669
Trantow Inc,642 Vahlen Hill,Dayton,Ohio,45403,937-940-0723,7693796
Torphy-Grimes,340 Del Sol Pass,Richmond,Virginia,23208,804-540-4912,7763844
O'Kon Group,8534 Basil Alley,Bakersfield,California,93305,661-755-3688,9195512
Koepp Group,28 Merrick Drive,Minneapolis,Minnesota,55480,612-804-7414,927980
"Frami, Hintz and Connelly",404 Fairview Street,Naples,Florida,34114,239-731-2474,6803335
"Zemlak, Ryan and Bailey",12277 Farmco Center,Ridgely,Maryland,21684,410-349-1741,9751801
"Mitchell, Wehner and Sanford",2 Superior Park,Redwood City,California,94064,650-116-1263,8300577
Kilback Inc,654 Farragut Hill,Kansas City,Missouri,64179,816-624-2675,9548502
Krajcik-Fadel,90907 Memorial Alley,Sacramento,California,94286,916-591-5124,6914068
Abernathy Group,62425 Claremont Court,Cincinnati,Ohio,45249,513-863-5526,1158442
"Lowe, Feest and Connelly",8396 Vera Pass,Miami,Florida,33180,786-597-3094,5365598
Schamberger-Gutmann,90 Stuart Lane,Atlanta,Georgia,31136,404-361-8593,8400582
Ruecker-Keeling,6635 Redwing Lane,Columbus,Ohio,43231,614-104-3045,3627024
Sawayn Group,385 Fordem Crossing,Peoria,Illinois,61635,309-251-0445,3665540
Miller-Hills,059 Straubel Junction,Seattle,Washington,98127,206-560-2342,9672044
DuBuque and Sons,12 Kim Park,Huntsville,Alabama,35810,256-167-4152,5936684
Wiza Inc,30 Russell Alley,Albuquerque,New Mexico,87105,505-359-6059,2742259
Pollich-Kertzmann,07 Northfield Point,Gastonia,North Carolina,28055,704-967-7554,8628275
"Durgan, Willms and Walter",46 Gerald Parkway,Tacoma,Washington,98442,253-850-6417,4059463
"Emmerich, Pacocha and Williamson",3 Hoffman Parkway,Tyler,Texas,75710,903-565-8266,6774781
Keebler Group,647 Trailsway Parkway,San Diego,California,92115,619-332-9825,8264195
Bailey-Swift,11434 Lunder Terrace,Peoria,Illinois,61605,309-136-4562,8122413
Cummings Inc,0938 Hooker Park,Washington,District of Columbia,20575,202-764-5088,1557174
Marks-Legros,60 Atwood Court,Sioux Falls,South Dakota,57105,605-606-4181,4495448
"Hauck, Wolf and Bednar",55 Cherokee Plaza,Kansas City,Kansas,66112,913-576-8018,6175809
"Stiedemann, Hettinger and Weissnat",780 Dunning Park,Charlotte,North Carolina,28299,704-280-0439,8273113
Veum LLC,64979 Norway Maple Lane,Virginia Beach,Virginia,23464,757-495-3368,6932725
Littel-Kovacek,6 Muir Way,Charleston,South Carolina,29411,843-936-7551,9236435
"O'Conner, Kerluke and Labadie",7 Mifflin Crossing,Fort Pierce,Florida,34981,772-664-8630,6410176
Runolfsson Group,887 Hudson Pass,Boston,Massachusetts,2109,617-351-8447,457649
Gleason-Gleason,9 Corry Parkway,Washington,District of Columbia,20016,202-257-4598,8095771
Schiller-Batz,4779 Manley Avenue,Springfield,Illinois,62711,217-579-7188,3587577
Witting Inc,8381 Melvin Plaza,Toledo,Ohio,43666,419-312-2742,4895930
Aufderhar Inc,6 Truax Junction,Des Moines,Iowa,50305,515-598-9154,5625644
Howe-Murray,207 Farmco Lane,Boston,Massachusetts,2124,617-137-5233,5196042
Ward Inc,335 4th Plaza,Canton,Ohio,44720,330-365-7661,3812276
"Zemlak, Stanton and Sanford",5 Eagan Trail,Orlando,Florida,32854,407-389-5074,7187331
Kunde LLC,28647 Twin Pines Parkway,Knoxville,Tennessee,37931,865-458-0497,4942925
Rath Group,2 Brown Trail,Saint Paul,Minnesota,55114,651-812-4264,311110
Halvorson LLC,7741 Texas Plaza,Sacramento,California,95813,916-640-3812,2475337
Schoen-Green,952 Nova Place,New York City,New York,10125,212-992-9493,6323654
O'Reilly Inc,3183 Corscot Parkway,Largo,Florida,33777,727-586-1400,1692269
Hettinger LLC,06 Carey Way,Grand Rapids,Michigan,49505,616-227-5224,8285701
Little-Casper,53420 Marquette Pass,Arlington,Virginia,22225,571-313-1913,102983
Stracke-Gleason,671 Village Green Street,Gatesville,Texas,76598,254-565-5748,4403055
Goodwin and Sons,08 Prairie Rose Place,Columbus,Ohio,43210,614-800-7043,7228672
Oberbrunner-Raynor,3 Grasskamp Parkway,Phoenix,Arizona,85072,602-992-3506,7669568
Hudson and Sons,3 Hanson Pass,Indianapolis,Indiana,46247,317-798-1994,7685910
Hills LLC,76155 Vahlen Court,Atlanta,Georgia,30328,404-512-2006,8366806
Kuphal Inc,76 Waxwing Pass,Homestead,Florida,33034,786-555-9508,5061655
Sanford and Sons,77383 Kim Trail,Fredericksburg,Virginia,22405,540-358-5980,4432534
Zemlak-Stehr,55450 Golf Trail,Erie,Pennsylvania,16505,814-693-9066,3780852
Stoltenberg-Robel,9 Old Gate Park,Bronx,New York,10454,718-275-3052,6096637
"Kreiger, Ritchie and Romaguera",2756 Becker Alley,Anaheim,California,92805,714-796-4206,437039
Lebsack Inc,283 Fremont Terrace,Gainesville,Florida,32610,352-508-6213,1347116
"Abbott, Glover and Zulauf",5907 Gulseth Point,Jackson,Mississippi,39296,601-345-5038,9292182
Wiza-Yost,28 Calypso Court,Sacramento,California,94297,916-985-5721,5280481
Deckow and Sons,26584 Laurel Court,Des Moines,Iowa,50347,515-982-2909,8846427
Lehner-Ebert,87 Michigan Road,Boise,Idaho,83732,208-669-7911,6237918
Homenick LLC,04 Duke Junction,Aurora,Illinois,60505,312-599-4756,4491004
"Mante, Spinka and Quitzon",732 Portage Junction,Richmond,Virginia,23237,804-984-0231,8953101
"Bartell, Pfeffer and Grant",6574 Portage Circle,Albany,New York,12262,518-144-8287,5759908
"Hintz, Schuster and Jenkins",6 Pleasure Parkway,Rockford,Illinois,61105,815-589-9000,2065570
"Thompson, Homenick and Cremin",06 Harper Plaza,Springfield,Missouri,65810,417-748-3107,2613930
"Auer, Ferry and Waters",4867 Ilene Crossing,Lansing,Michigan,48919,517-147-3694,873214
Gislason and Sons,02 Johnson Road,Norfolk,Virginia,23520,757-656-7058,4529537
Upton-Zieme,060 Gale Hill,Birmingham,Alabama,35290,205-176-5790,3470603
"Klein, Jerde and Kuvalis",36000 Thierer Park,San Francisco,California,94137,415-714-0515,1154677
Windler-Krajcik,401 New Castle Plaza,Cincinnati,Ohio,45233,513-576-3588,4121678
"Smitham, Rogahn and Nolan",19665 Surrey Avenue,Washington,District of Columbia,20551,202-493-8433,5628387
Feeney-Kozey,75 Carioca Street,Cincinnati,Ohio,45208,513-966-1702,6222311
Botsford and Sons,77 Claremont Drive,Utica,New York,13505,315-273-1329,2583355
"Carter, Blick and Muller",309 Blackbird Avenue,New York City,New York,10029,212-159-4777,5539262
Rau-Reichel,47 Calypso Crossing,Charleston,West Virginia,25326,304-374-0761,1686896
"Roberts, Langworth and Balistreri",4 Katie Junction,Pensacola,Florida,32511,850-631-0085,8625401
"Rohan, Rogahn and Champlin",7739 Eagan Street,Duluth,Georgia,30096,678-647-6765,7286182
Wisoky Group,57674 Evergreen Drive,Honolulu,Hawaii,96825,808-753-5561,6830205
King Inc,808 Stang Terrace,Naples,Florida,33961,305-986-3490,8847246
Douglas-Schmidt,8 Arapahoe Center,Vancouver,Washington,98664,360-912-8004,1220156
Langosh and Sons,962 Lillian Hill,Mc Keesport,Pennsylvania,15134,412-773-4342,3776893
Blanda-Mayert,8 Golf View Pass,Edmond,Oklahoma,73034,405-505-3926,7608710
Koss-Cartwright,6 Welch Terrace,Macon,Georgia,31210,478-404-8278,3976018
McGlynn-Blick,531 Anderson Parkway,Winston Salem,North Carolina,27105,704-715-9380,3254136
"Parisian, Wiza and Eichmann",72 Cascade Point,Roanoke,Virginia,24004,540-304-0406,2284339
Swift Group,40410 7th Road,Jacksonville,Florida,32259,904-677-0813,66465
"Swaniawski, Breitenberg and Hilpert",1 Portage Point,West Palm Beach,Florida,33411,561-503-3013,6821119
"Rowe, Spencer and Hessel",0 Susan Trail,Birmingham,Alabama,35231,205-652-6753,7365839
Gerhold and Sons,96743 Evergreen Circle,Maple Plain,Minnesota,55572,763-160-6041,9261820
Skiles-Bayer,4 Surrey Street,Memphis,Tennessee,38188,901-242-6130,5017047
"Dickinson, Rosenbaum and Rippin",33147 Moose Hill,Van Nuys,California,91411,818-723-8683,6222216
"Schuppe, Cremin and Larson",704 Declaration Junction,Des Moines,Iowa,50981,515-152-4979,8162772
Konopelski-Kirlin,3 Birchwood Crossing,Orlando,Florida,32835,407-793-0042,3757337
Kessler Inc,2419 La Follette Place,Tyler,Texas,75799,903-768-4032,1262596
McDermott Inc,25206 Mifflin Lane,Minneapolis,Minnesota,55480,612-697-9660,2448588
Gibson-Rosenbaum,39 Sunfield Point,Pittsburgh,Pennsylvania,15205,724-684-3445,2502614
Abshire and Sons,4 Dwight Pass,Durham,North Carolina,27710,919-608-9997,5235551
"Graham, Stroman and Ernser",72 Warrior Way,Staten Island,New York,10310,718-709-8901,3172658
Lowe-Waters,75 Logan Crossing,Salt Lake City,Utah,84105,435-950-6109,4727515
Mohr-Johns,49 Lunder Plaza,Henderson,Nevada,89074,702-223-2482,9118083
"Wisoky, Franecki and Kunde",9329 Prairieview Court,Naples,Florida,33963,239-362-3732,4057466
Little Inc,513 Kinsman Way,Austin,Texas,78754,512-669-9470,3976607
Beer Inc,95311 Hayes Street,Irving,Texas,75037,214-505-4739,6694323
"Thiel, Schulist and Kris",303 Welch Plaza,Conroe,Texas,77305,936-176-3722,2274033
"Wolf, Abernathy and Haley",4 Corscot Parkway,Pomona,California,91797,909-814-0456,7878834
"Rohan, Moen and Bruen",07008 Norway Maple Trail,Omaha,Nebraska,68164,402-674-9384,6569973
O'Reilly and Sons,46038 Schiller Place,North Little Rock,Arkansas,72199,501-838-7580,2275797
Kihn-Vandervort,24019 Barnett Drive,Sioux Falls,South Dakota,57105,605-753-9336,4981527
"Streich, Feest and Boyle",193 Surrey Court,Green Bay,Wisconsin,54305,920-504-6429,8477987
Lemke-Ledner,297 Kedzie Alley,Atlanta,Georgia,30340,404-182-9078,1172101
"Daniel, Schuster and Welch",38 Debra Alley,Fort Lauderdale,Florida,33330,954-739-1187,859761
Feeney and Sons,7 Dexter Hill,Syracuse,New York,13224,315-986-2854,818009
Marvin Inc,62 Pine View Hill,Washington,District of Columbia,20404,202-133-7571,9732889
"Ebert, Lang and Fahey",896 Browning Pass,Reno,Nevada,89595,775-383-3020,9922653
"Abernathy, Barton and Koch",7188 Dawn Circle,Charleston,South Carolina,29416,843-510-3718,6430793
Ziemann-Abernathy,15 Colorado Junction,Nashville,Tennessee,37245,615-247-3718,4436171
Cormier-Marquardt,2 Longview Center,Tucson,Arizona,85737,520-925-9110,4590335
Towne-Bechtelar,42365 Surrey Circle,Springfield,Virginia,22156,571-878-1171,873555
Veum LLC,8780 Muir Circle,Providence,Rhode Island,2905,401-632-1424,2084291
Murray-Purdy,31531 Oxford Street,Fort Lauderdale,Florida,33355,754-228-4934,2136363
"Jast, Cassin and Zulauf",7 Pierstorff Parkway,Spokane,Washington,99205,509-429-5127,6327259
Mosciski-Hahn,2 Bartillon Parkway,Chicago,Illinois,60652,773-455-1592,4280531
Reynolds LLC,4 Acker Point,Washington,District of Columbia,20310,202-242-4523,825691
"Russel, Veum and Hagenes",0 Dwight Place,Decatur,Illinois,62525,217-528-4191,3341587
"Okuneva, Mayert and Wiegand",69 Roxbury Drive,Pensacola,Florida,32526,850-354-3088,4611107
Reilly Inc,0 Hudson Parkway,Miami,Florida,33124,786-479-6149,9091696
"Wiegand, Padberg and Jakubowski",18908 Towne Hill,Houston,Texas,77090,713-621-7714,4978355
Bartoletti Inc,2 Loftsgordon Parkway,Shreveport,Louisiana,71137,318-207-5438,7442355
Roob-Skiles,928 Moland Pass,Birmingham,Alabama,35290,205-707-4521,5614564
Shanahan-Hilll,45950 Dakota Road,Baton Rouge,Louisiana,70810,225-939-7538,7580181
Robel and Sons,62 Westerfield Terrace,Orlando,Florida,32868,407-502-8498,2703667
Kirlin-Shields,01849 Mcbride Crossing,San Jose,California,95128,714-866-5494,6987627
Kshlerin-Casper,09 Schurz Pass,Miami,Florida,33164,786-755-3677,7736870
"Borer, Lubowitz and Bartoletti",6 Lunder Parkway,New Brunswick,New Jersey,8922,732-293-1054,8374997
"Treutel, Heaney and Osinski",066 Mitchell Terrace,Salt Lake City,Utah,84110,801-578-5287,5430540
"Medhurst, Osinski and Mraz",5 Lyons Point,Buffalo,New York,14210,716-329-8372,2516155
Cummerata-Rau,9 Dorton Park,Englewood,Colorado,80150,303-925-4802,668408
Lindgren Inc,27 Carey Court,Philadelphia,Pennsylvania,19141,215-255-2302,274940
"Kris, Nolan and Turner",7 Carey Street,Washington,District of Columbia,20062,202-499-1458,9380865
Buckridge-Jenkins,7 Glacier Hill Drive,Newport Beach,California,92662,949-212-6536,6213260
Leuschke-McCullough,0 Lakeland Trail,Irvine,California,92710,714-948-4806,9234031
Kemmer-Gerlach,8 Debra Park,Charlotte,North Carolina,28247,704-130-8709,163701
Bauch and Sons,99 Brickson Park Trail,West Palm Beach,Florida,33416,561-514-9658,4597307
Legros Inc,211 Tennyson Hill,Springfield,Illinois,62718,217-831-6774,9440785
Larkin-Bartoletti,2941 American Drive,Seattle,Washington,98109,360-433-0257,8185867
Gleason-Erdman,76 Northland Road,Portland,Oregon,97211,503-302-3797,8319675
Lynch Group,1979 Nancy Center,Houston,Texas,77035,281-883-4328,7939869
"Stanton, Rice and Heller",6906 Darwin Road,Sacramento,California,95894,916-922-6094,5400287
Von-Cassin,04666 Pine View Crossing,Newton,Massachusetts,2162,508-698-7004,4069008
Braun and Sons,3 Judy Center,Atlanta,Georgia,31190,404-276-7721,4004664
Leannon-Hilpert,01829 Calypso Street,New Orleans,Louisiana,70160,504-996-8821,1008842
Moore-Weber,99 American Plaza,Topeka,Kansas,66642,785-459-3521,4717418
Purdy Inc,7 Meadow Vale Avenue,Roanoke,Virginia,24048,540-655-4299,8935595
Auer Inc,3 Moulton Point,Fort Wayne,Indiana,46867,260-548-2748,1243467
Luettgen-Mante,36 Superior Court,Saint Louis,Missouri,63143,314-244-3469,2741724
"Schiller, Klocko and Cassin",3104 David Lane,Los Angeles,California,90040,760-174-8517,4179817
Deckow-Gutmann,2 Corscot Drive,Houston,Texas,77240,713-400-3237,9516983
Block and Sons,17 Morrow Alley,Utica,New York,13505,315-622-5952,4249543
Treutel LLC,4 Fordem Lane,Minneapolis,Minnesota,55480,612-816-9328,6289635
Murphy LLC,41174 Sunnyside Crossing,Washington,District of Columbia,20546,202-176-9354,4324554
Crooks-Tremblay,06 Valley Edge Road,Newark,Delaware,19725,302-541-5333,3754227
Boyer-Graham,648 Oxford Drive,El Paso,Texas,79950,915-880-8787,4134779
"Deckow, Durgan and Lueilwitz",0460 Prentice Junction,Washington,District of Columbia,20268,202-548-3934,7228935
"Abernathy, Berge and Thiel",890 Pawling Place,Houston,Texas,77260,713-353-8082,7226165
Turner LLC,3056 Drewry Park,Staten Island,New York,10305,718-828-7914,9186587
Langworth-Schiller,2678 Hollow Ridge Circle,Corpus Christi,Texas,78465,361-877-2076,528326
Reinger LLC,46874 Lakeland Trail,Cincinnati,Ohio,45254,513-675-2776,8285954
Ebert Inc,2077 Glacier Hill Street,Cleveland,Ohio,44191,216-660-6923,184258
Mayert-Reichel,8907 Tennessee Junction,Columbia,South Carolina,29203,803-208-9609,5591114
Frami LLC,0766 Logan Court,Roanoke,Virginia,24034,540-869-5986,3798720
Buckridge and Sons,99 Valley Edge Junction,Louisville,Kentucky,40233,502-216-6283,187942
"Baumbach, Casper and Kohler",6627 Little Fleur Alley,Tulsa,Oklahoma,74149,918-846-6813,2492052
Koepp Inc,1 Southridge Point,Lexington,Kentucky,40515,859-954-7017,9813477
McCullough-Considine,3 Arapahoe Pass,Dallas,Texas,75260,214-787-5055,1186656
Deckow-Price,0 Messerschmidt Alley,Chattanooga,Tennessee,37416,423-612-7911,9585314
"Mohr, Harber and Sauer",48192 Bellgrove Hill,Los Angeles,California,90035,818-309-0340,9159875
Eichmann-Hagenes,0401 Holmberg Court,Richmond,Virginia,23289,804-456-4882,6362484
"Hintz, Anderson and Cummings",22 Oak Plaza,Punta Gorda,Florida,33982,941-349-2584,2257795
Marquardt Group,0309 Russell Court,Atlanta,Georgia,30336,404-234-3472,4749195
Tromp-Waters,67359 Lyons Drive,Cleveland,Ohio,44185,216-716-3939,1247091
Graham-Stanton,1348 Russell Drive,Saint Cloud,Minnesota,56372,320-161-9298,6443137
VonRueden Group,3 2nd Place,San Francisco,California,94105,415-563-2353,9892728
Cartwright Group,8178 Northwestern Circle,Colorado Springs,Colorado,80920,719-740-7192,7878858
Ortiz and Sons,27355 Esch Plaza,Inglewood,California,90398,310-354-2203,5411214
Nikolaus-Dooley,97 Corben Pass,Pasadena,California,91103,626-767-6625,7991772
Ondricka-Graham,20158 Mendota Place,Colorado Springs,Colorado,80910,719-866-3586,344828
Zulauf-Funk,92 Mifflin Center,Albany,New York,12262,518-308-8831,4951649
Hansen-Hamill,90787 Hauk Pass,Grand Rapids,Michigan,49560,616-829-0732,7127405
Kassulke Group,7 Cordelia Court,Ocala,Florida,34474,352-527-7874,3630940
"Lang, Bradtke and Ward",48 Pond Point,Escondido,California,92030,760-632-4449,3634927
Kessler-Feeney,9874 Glendale Center,Dallas,Texas,75231,214-951-6702,9343551
Kiehn-McCullough,3986 Chinook Pass,Miami,Florida,33196,305-284-3372,1286980
"Olson, O'Conner and Armstrong",0 Schurz Parkway,Reno,Nevada,89519,775-293-7460,248845
"Mosciski, Oberbrunner and Kshlerin",122 Lindbergh Plaza,Los Angeles,California,90005,213-375-7555,6496950
Dietrich and Sons,1 Scoville Circle,San Diego,California,92145,619-581-8215,4965599
"Kohler, Pfannerstill and Stroman",19224 Mayfield Court,Boston,Massachusetts,2163,978-990-2952,961229
"Willms, McLaughlin and Huels",882 Gulseth Parkway,Youngstown,Ohio,44505,330-611-5490,2331391
Bauch Group,137 Ridge Oak Court,Fort Worth,Texas,76198,682-608-3698,8198547
Johns-Marquardt,864 Florence Junction,Cleveland,Ohio,44197,216-625-7694,8057910
Koelpin-Fay,49597 Waxwing Street,Dallas,Texas,75251,214-910-7609,2449732
Morar Inc,749 Fallview Parkway,Bradenton,Florida,34282,941-341-6817,149443
Dooley-Dare,62 Muir Drive,Saint Louis,Missouri,63131,636-287-1187,392822
"Denesik, Collier and Anderson",09617 Fairview Street,Mesa,Arizona,85215,480-597-9610,2719382
Weber and Sons,3 Lakewood Pass,Lansing,Michigan,48912,517-968-2688,6579457
Davis Group,5 Commercial Street,Honolulu,Hawaii,96850,808-502-9124,7923627
Spinka Inc,50 Transport Road,Spring Hill,Florida,34611,352-371-8603,1651221
Herzog-O'Keefe,6914 Service Place,New York City,New York,10160,212-766-5515,5566747
"Bartoletti, Simonis and Gleason",27 Sundown Center,Louisville,Kentucky,40293,502-740-4967,4200933
Beier-Herzog,7 Golden Leaf Court,Baltimore,Maryland,21265,410-539-5990,5211234
Feeney-Pfeffer,66511 Eastwood Place,Seattle,Washington,98127,206-777-8475,4654173
"Eichmann, Kris and Braun",4 Banding Court,El Paso,Texas,88558,915-820-8854,1419511
Bradtke-Graham,1 Garrison Junction,Columbus,Mississippi,39705,662-482-6813,5328192
Pacocha-Reinger,127 Valley Edge Lane,Detroit,Michigan,48211,734-596-8030,8633494
"Koss, Veum and Blanda",1 Crest Line Avenue,Madison,Wisconsin,53785,608-149-2389,256185
Crooks-Keebler,19398 Moland Hill,Amarillo,Texas,79116,806-394-0766,6309084
DuBuque Inc,98096 Mendota Pass,Austin,Texas,78715,512-330-4023,5699030
"Becker, Fahey and Lockman",1662 Lakewood Gardens Point,Scottsdale,Arizona,85260,623-182-0339,7405677
"Pagac, Treutel and Wisoky",19701 Muir Junction,Salt Lake City,Utah,84120,801-140-9025,4703916
"Sipes, Parisian and Heaney",91 Dryden Place,Herndon,Virginia,22070,757-785-4531,5631280
"Hartmann, Simonis and Cole",1429 Welch Road,Washington,District of Columbia,20599,202-719-4448,6406740
Prohaska Group,05486 Delaware Place,Dallas,Texas,75241,214-559-9180,8361368
Reynolds Group,30166 Merry Lane,Fort Wayne,Indiana,46867,260-435-7121,1947210
Miller-Gleichner,73 Clove Street,Melbourne,Florida,32919,321-299-1899,6889075
"Konopelski, Conn and Feest",7 Morning Crossing,Milwaukee,Wisconsin,53210,262-511-1383,9851660
Klein-Anderson,351 Ruskin Pass,Virginia Beach,Virginia,23464,757-508-5857,4283957
Dickens Inc,2750 Lien Terrace,Suffolk,Virginia,23436,757-301-9117,9730819
Flatley-Little,7594 5th Terrace,Sacramento,California,94297,916-981-0373,7777473
Boyle-West,839 Portage Hill,Brooklyn,New York,11220,718-539-0746,8312091
"Krajcik, Borer and Lockman",7313 Hazelcrest Point,New Orleans,Louisiana,70187,504-185-7369,8945612
"Cronin, Hilpert and Kuhic",515 Kingsford Crossing,Amarillo,Texas,79171,806-337-8741,4385166
"Carter, Dibbert and Metz",98 Mccormick Road,Fort Wayne,Indiana,46814,260-464-9364,3507287
Treutel LLC,8963 Cardinal Pass,Evansville,Indiana,47747,812-301-7763,8119024
Marvin-Schuster,04657 Schlimgen Circle,Huntington Beach,California,92648,562-329-8100,1331316
Kling LLC,30048 Trailsway Point,Burbank,California,91505,626-311-5086,4908786
Dibbert and Sons,69376 Independence Terrace,Fresno,California,93709,559-536-8501,1314436
Conn-Quigley,3 Michigan Parkway,Santa Cruz,California,95064,831-509-8179,4343374
Miller-Reichel,68398 Birchwood Crossing,Little Rock,Arkansas,72222,501-417-0537,7028975
Stokes-Aufderhar,0221 Fisk Park,Durham,North Carolina,27717,919-615-8262,6940753
"Kling, Hagenes and Franecki",82149 Anthes Crossing,Tacoma,Washington,98481,253-893-3516,394833
Carter Inc,0677 Texas Point,Madison,Wisconsin,53785,608-712-3976,6992315
Harris-Daniel,372 Talmadge Point,San Jose,California,95194,408-526-9011,3216344
"Douglas, Pollich and Pfannerstill",57554 Cottonwood Circle,Charleston,South Carolina,29403,843-934-7205,1028622
Terry-Halvorson,625 Marcy Terrace,Birmingham,Alabama,35290,205-854-5504,2439461
Prohaska-Hoeger,2448 Darwin Plaza,Charleston,West Virginia,25389,304-616-1804,636074
Roob LLC,3 5th Trail,Baltimore,Maryland,21229,410-677-7348,8338726
Conroy-Gusikowski,28 Ramsey Court,Lawrenceville,Georgia,30045,404-723-1127,7640055
"Hagenes, Prosacco and Toy",70974 Stephen Court,Newark,Delaware,19714,302-728-5734,7018455
"Leffler, Lueilwitz and Howe",42044 Walton Circle,Jacksonville,Florida,32277,904-729-2520,4024869
Kunze-Farrell,534 Lillian Center,Murfreesboro,Tennessee,37131,615-571-6213,2701034
Feil-Botsford,57010 Riverside Junction,Bronx,New York,10459,917-291-5334,2278649
Rowe-Moore,908 1st Court,Gadsden,Alabama,35905,256-367-6403,7949963
"White, Nolan and Carroll",14047 Del Mar Point,Pittsburgh,Pennsylvania,15250,412-328-6071,1201537
"Gutmann, Volkman and Bahringer",551 Vernon Circle,Dallas,Texas,75379,214-745-7018,2416672
"Conroy, Mitchell and Walker",83 Orin Plaza,Houston,Texas,77090,832-735-0710,9280035
Orn-Senger,2639 Center Hill,Longview,Texas,75605,903-668-0806,9011666
Stehr-Walter,7301 Maryland Road,Fort Worth,Texas,76192,682-179-1577,7339675
Steuber LLC,12 Grasskamp Court,Vienna,Virginia,22184,571-118-3504,6786073
Lueilwitz-Nitzsche,68963 Randy Crossing,Memphis,Tennessee,38136,901-766-4707,3375304
Langosh LLC,850 Havey Crossing,Des Moines,Iowa,50347,515-120-1536,7116972
"Jones, Abernathy and Lowe",1498 American Alley,Henderson,Nevada,89012,702-393-2137,4432611
Fritsch Group,1791 Muir Avenue,Cincinnati,Ohio,45243,513-632-2480,1908894
Turner-Rath,9040 Springview Drive,Littleton,Colorado,80161,720-355-0058,3285447
Yost-Krajcik,051 Hoepker Avenue,San Diego,California,92160,619-874-7607,9074097
Strosin-Wintheiser,4 Sommers Plaza,Winter Haven,Florida,33884,863-103-9843,4296418
Murazik LLC,223 Pawling Pass,Topeka,Kansas,66629,785-993-5860,8707725
"Ebert, Bergnaum and Schmeler",49 Nevada Street,Ann Arbor,Michigan,48107,734-323-1122,2107487
Dickinson Inc,3992 Kenwood Lane,Duluth,Georgia,30195,678-253-2803,2283714
McKenzie-Ebert,80 Stephen Junction,Cincinnati,Ohio,45249,513-281-1129,428105
Grady-Dickinson,68 Aberg Terrace,Washington,District of Columbia,20530,202-273-6208,5218117
Kunde and Sons,69760 Maple Drive,Schenectady,New York,12325,518-440-6188,328128
Mann LLC,88 Warrior Plaza,Tucson,Arizona,85710,520-360-1138,4695370
Treutel-Gleason,6 Hagan Alley,Petaluma,California,94975,707-717-5281,226976
Runte-Kreiger,40452 2nd Alley,North Little Rock,Arkansas,72199,501-645-6489,1803273
Kozey Group,3 Sachs Crossing,San Diego,California,92110,858-199-1207,3173812
Koepp Inc,251 Tennessee Plaza,Columbus,Ohio,43215,513-390-3042,9892237
Connelly LLC,42495 Northport Court,Houston,Texas,77293,281-875-2509,3768880
"Fahey, Lowe and Smith",3924 Manufacturers Center,Youngstown,Ohio,44505,330-782-3841,9507067
Wolff-Padberg,42100 Eastwood Drive,Rochester,New York,14683,585-863-2724,2823261
Crooks-Gleason,26 Carey Way,Atlanta,Georgia,30340,678-338-3502,2781111
Gottlieb Group,52 Graedel Lane,Salt Lake City,Utah,84125,801-187-5638,8660867
"Harber, Kiehn and Pacocha",8 Westerfield Street,Fairbanks,Alaska,99790,907-632-0628,9081178
Sauer-Barton,9 Sage Plaza,Saint Louis,Missouri,63116,314-946-0283,5659938
Rogahn-Green,83 Iowa Place,Minneapolis,Minnesota,55470,612-504-4105,1203454
"Bosco, Jaskolski and Renner",2 Pleasure Way,Abilene,Texas,79605,325-208-6855,3142995
"Smitham, Harber and Hintz",643 Thackeray Plaza,Tacoma,Washington,98464,253-370-8826,8331770
Brakus-Thompson,640 Loeprich Crossing,Scottsdale,Arizona,85260,602-531-6764,569717
"Rau, Hilpert and Schaefer",4355 Everett Crossing,Baltimore,Maryland,21282,410-878-8553,4956175
"Sipes, Hoeger and Heidenreich",42 Sauthoff Circle,El Paso,Texas,79955,915-589-2638,5777578
Gleason-Borer,53336 Welch Alley,Sacramento,California,95852,916-844-9939,6084263
Brekke-Turner,1 Fair Oaks Road,Stamford,Connecticut,6922,203-604-9637,662040
"Heaney, Jacobson and Ankunding",99 Roth Alley,Austin,Texas,78703,512-341-3709,9262205
Bashirian Group,81 Elka Lane,Columbia,South Carolina,29225,803-750-6112,8386194
Bartoletti Inc,347 Saint Paul Point,Pasadena,California,91199,626-727-9078,9723833
Murazik Inc,8 Farragut Hill,Baltimore,Maryland,21265,410-180-5517,9954572
"Hayes, Kling and Boyle",2036 Manufacturers Road,Hyattsville,Maryland,20784,301-173-2559,9756106
Ebert Inc,23 Kipling Terrace,Waterbury,Connecticut,6726,203-644-4191,2370830
Hilpert Group,72274 Straubel Point,Houston,Texas,77055,713-988-1600,5317770
"Dietrich, Mayer and Hand",943 Scofield Trail,Glendale,Arizona,85305,623-413-4031,5880797
"Rolfson, Bauch and Murray",531 Algoma Hill,Jamaica,New York,11447,718-273-0464,1101556
"Cronin, Spinka and Hermiston",686 Spenser Place,Waltham,Massachusetts,2453,617-970-6134,4013361
Streich Inc,08102 Derek Place,Seminole,Florida,34642,941-748-3543,5679868
"Ullrich, Considine and Wintheiser",42824 Anhalt Place,Garden Grove,California,92645,714-517-9637,888705
Fay and Sons,320 Nelson Avenue,Oakland,California,94611,510-599-3026,3372929
Runolfsson-Heathcote,02740 Mariners Cove Park,Los Angeles,California,90010,310-597-1825,5057097
"Lowe, Ferry and Aufderhar",614 Spaight Center,Macon,Georgia,31210,478-379-4944,3206017
Cole and Sons,5 Algoma Circle,Melbourne,Florida,32941,321-344-6980,9153079
Wiza and Sons,245 Bluestem Road,Sterling,Virginia,20167,571-536-4983,4856382
Monahan-Larson,2248 Cordelia Court,Sacramento,California,95838,916-807-9833,297933
"Rosenbaum, Considine and Murray",08 Shopko Crossing,Wichita Falls,Texas,76305,940-213-0909,2293618
Mann-Hauck,99717 Marquette Way,Saginaw,Michigan,48604,989-797-7274,5684512
Ondricka Inc,96763 Ryan Hill,Springfield,Virginia,22156,571-271-0786,3299669
"Keeling, Conn and Beatty",39 Almo Place,Pompano Beach,Florida,33069,954-284-4430,5400201
Stiedemann-Sporer,3 American Ash Court,Tampa,Florida,33661,813-604-6156,6485155
Wilkinson-Steuber,33 Warbler Road,Saint Louis,Missouri,63196,314-478-5343,8161132
"Lockman, Stehr and Farrell",699 Jenifer Road,Houston,Texas,77025,281-681-2840,4952012
Hessel LLC,62 Katie Court,San Diego,California,92127,858-582-2100,8100590
Mayer Inc,3605 Mosinee Junction,El Paso,Texas,79984,915-414-7438,6368072
Bartell Group,28341 Anthes Crossing,Tacoma,Washington,98405,253-876-2105,4772387
"Yundt, Bashirian and Anderson",1450 Roth Parkway,Ann Arbor,Michigan,48107,734-332-2711,862392
Casper-Balistreri,6964 Birchwood Trail,El Paso,Texas,79928,915-147-0355,7148591
Mayer-Sporer,07 Melvin Alley,San Diego,California,92191,619-325-6893,7757624
"Steuber, Hackett and Torp",2739 Rieder Junction,Lynchburg,Virginia,24515,434-168-1618,2477821
Rolfson-Klein,31462 Fisk Crossing,Waterbury,Connecticut,6705,203-659-4631,266360
"Kassulke, Turcotte and Murazik",59 Mcbride Lane,Dallas,Texas,75367,214-802-8814,4048775
Green LLC,2808 Northport Way,Chicago,Illinois,60663,312-203-5068,1804088
Hodkiewicz and Sons,5146 Dexter Drive,Wichita Falls,Texas,76310,940-227-0795,2939828
"Maggio, Boehm and Buckridge",99 Golden Leaf Road,New Orleans,Louisiana,70142,504-735-2781,6777685
Streich LLC,0 Dixon Lane,San Antonio,Texas,78230,210-239-4775,4943224
"Mraz, Lind and Bradtke",284 International Way,Omaha,Nebraska,68179,402-704-0345,7889761
"Hackett, Davis and Willms",2 West Crossing,Fort Wayne,Indiana,46862,260-125-5482,8783729
Weber-Ruecker,67892 Helena Lane,Galveston,Texas,77554,281-148-9712,6363284
"Hackett, Jaskolski and Lesch",6223 Kingsford Center,Riverside,California,92505,909-609-9668,209399
Wolff LLC,305 Ilene Court,Brooklyn,New York,11225,718-761-9451,1872124
Lindgren-Hoeger,539 Mitchell Way,Los Angeles,California,90060,323-971-5036,9943860
Gorczany LLC,48 Kim Alley,Hialeah,Florida,33013,786-453-3941,4277307
Klein-Sipes,13299 Muir Parkway,Phoenix,Arizona,85010,602-603-7775,3439435
Konopelski and Sons,8 Hoepker Terrace,Tallahassee,Florida,32304,850-751-6445,9809242
McGlynn Inc,86904 Upham Crossing,Fort Myers,Florida,33906,239-674-1147,7888118
Wilderman-Christiansen,74311 Cambridge Pass,Anchorage,Alaska,99522,907-873-5402,7774036
Grimes LLC,9 Crest Line Way,Pittsburgh,Pennsylvania,15225,412-822-6494,7629376
"Quitzon, Block and Funk",28 Logan Park,Duluth,Minnesota,55811,218-726-2032,7842843
"Kuhn, Wyman and Little",76018 Merrick Terrace,Tampa,Florida,33625,813-951-0502,7441951
Considine-Ankunding,8 Portage Hill,Springfield,Virginia,22156,571-574-4162,8780775
Gleichner-Wisoky,577 Texas Street,Tacoma,Washington,98417,253-882-2089,6746606
Torphy and Sons,7 Sunbrook Center,Trenton,New Jersey,8638,609-185-9854,1286719
"Crooks, Little and Ledner",49868 Moulton Hill,Newport News,Virginia,23605,757-117-5135,6160535
"King, Rodriguez and Hauck",06 Carpenter Lane,Spokane,Washington,99252,509-323-1720,5744923
"Schmidt, Ruecker and Schroeder",06 Spaight Center,Tacoma,Washington,98424,253-241-6096,6496235
Crist and Sons,7224 Kinsman Lane,Fresno,California,93786,559-965-5360,8739671
"Harvey, Cartwright and Larson",10581 Dorton Parkway,Portland,Oregon,97240,971-175-2782,850373
"Carroll, Baumbach and Hahn",20713 Chinook Center,Worcester,Massachusetts,1654,508-534-8938,2329794
Gerhold LLC,3 Namekagon Way,West Hartford,Connecticut,6127,860-517-3507,7181120
Willms LLC,94 Stoughton Place,Gainesville,Georgia,30506,404-369-3795,3074098
Oberbrunner LLC,7 Judy Lane,Columbus,Ohio,43268,614-766-4875,5077702
Schinner LLC,54620 Tennessee Crossing,Akron,Ohio,44315,330-184-7045,1768087
"Kessler, Kuvalis and Koelpin",98 Prairieview Point,Greensboro,North Carolina,27425,336-425-5935,9417263
Reichert and Sons,01876 Fairview Road,Portland,Oregon,97229,503-186-1869,6024640
"Kuphal, Klocko and Goldner",45 Amoth Circle,New Orleans,Louisiana,70187,504-809-3900,7011914
Gottlieb Group,21 Mcguire Avenue,Englewood,Colorado,80150,303-979-0106,4777276
Blanda LLC,7 Westerfield Terrace,New York City,New York,10004,917-223-3041,688891
Fay and Sons,62 Gerald Road,Atlanta,Georgia,30386,404-658-1400,3195491
"Bergnaum, Dickens and Lueilwitz",9142 Melvin Way,Newton,Massachusetts,2162,508-396-9349,7006882
Herzog Group,325 Blaine Lane,Evansville,Indiana,47705,812-250-2255,6506877
"Kub, Turner and Farrell",48801 Artisan Street,Washington,District of Columbia,20073,202-595-3410,5982350
"Johnston, Schuster and Purdy",369 Mendota Crossing,Charleston,South Carolina,29424,843-690-4502,7033264
"McCullough, Waters and Abernathy",50804 High Crossing Terrace,Hartford,Connecticut,6152,860-408-2106,6726291
"Tillman, Farrell and Grant",4919 Bunker Hill Terrace,Fresno,California,93709,559-564-4812,213840
"McDermott, Hagenes and Douglas",8 Sage Hill,New Orleans,Louisiana,70165,504-798-9531,9508738
Langosh-Conn,4848 Kings Trail,Tampa,Florida,33633,813-249-8046,2568977
"Maggio, Mertz and Barrows",315 Anhalt Pass,Oklahoma City,Oklahoma,73147,405-541-5382,4613191
Crist-Borer,42 Briar Crest Center,Hialeah,Florida,33018,786-885-9408,817894
Bergnaum-Sawayn,92892 Comanche Street,Austin,Texas,78764,512-191-7669,1607554
"Greenfelder, Cassin and Dibbert",2142 Colorado Street,Youngstown,Ohio,44505,330-961-2682,4904408
"Gleichner, Hauck and Boyer",0 Manitowish Place,Louisville,Kentucky,40220,502-646-3136,3428980
Boyer-Fisher,7701 Mandrake Crossing,San Antonio,Texas,78260,210-785-1776,1493506
Carter-Towne,88 Anderson Drive,Louisville,Kentucky,40298,502-784-8817,8584562
Zemlak-Powlowski,061 Namekagon Court,Bronx,New York,10459,917-672-7040,1412295
Gutkowski Group,7 Milwaukee Trail,Montgomery,Alabama,36195,334-491-1247,519901
Murray and Sons,3 Evergreen Trail,Denver,Colorado,80299,720-136-7237,2914754
Rau and Sons,01 Valley Edge Point,Houston,Texas,77266,832-102-1379,6141587
"Watsica, Cremin and Corkery",979 Sunbrook Circle,Southfield,Michigan,48076,586-593-4320,6904697
"Streich, King and Bartell",1 Hooker Place,Ventura,California,93005,805-276-0771,104586
Huel Group,68693 Lakeland Trail,Kansas City,Missouri,64114,816-688-0561,6910476
"Fritsch, Weimann and Walter",5 Donald Alley,Flint,Michigan,48555,810-514-3384,8756965
Zboncak Inc,2631 Del Sol Point,Baltimore,Maryland,21239,410-197-6033,8111001
Reinger-Feeney,913 Northridge Street,Denver,Colorado,80209,720-192-5567,1989903
"Kuhlman, Terry and Kunde",00951 Dahle Pass,Lincoln,Nebraska,68524,402-708-6398,5763776
Casper Group,841 Sommers Way,Pensacola,Florida,32526,850-329-6321,2503081
Dicki-Roberts,49396 Park Meadow Drive,Chandler,Arizona,85246,480-169-1560,1403298
"Schmeler, Grimes and Hand",9 Sycamore Hill,Fort Wayne,Indiana,46825,260-739-5314,6588917
Stroman Group,6 Erie Avenue,Memphis,Tennessee,38168,901-275-5003,4853078
Osinski-Schaefer,82045 Prentice Court,Boynton Beach,Florida,33436,561-228-8529,5709648
Zulauf-Lesch,71 Bunting Park,Saint Cloud,Minnesota,56398,320-841-8983,1484353
Halvorson-Shanahan,9429 Saint Paul Place,Houston,Texas,77276,713-620-3316,1119989
"Mayer, Bergnaum and Dickens",5047 Claremont Court,Amarillo,Texas,79159,806-204-5195,239329
Hessel Inc,7254 Bluejay Court,Louisville,Kentucky,40233,502-300-3339,6333085
"Goyette, Morissette and Leuschke",5367 Division Court,Baltimore,Maryland,21282,410-142-4036,8586813
Fritsch-Dibbert,52845 Melody Crossing,Grand Junction,Colorado,81505,970-735-9483,1742720
"Carter, Marks and Shields",91039 Gulseth Lane,San Diego,California,92153,619-343-9779,102544
Kessler-Schowalter,6594 Merchant Pass,Pompano Beach,Florida,33075,754-855-2584,3625644
Jacobs-Dietrich,13276 Pond Terrace,Virginia Beach,Virginia,23454,757-659-6407,4467607
Bauch Inc,989 Alpine Trail,Houston,Texas,77228,713-500-8564,3801864
"Torp, McDermott and Hahn",560 Fordem Place,Harrisburg,Pennsylvania,17140,717-613-8292,270159
Veum Inc,74 Jay Park,Newark,New Jersey,7188,862-535-2692,9102966
Cummings LLC,2422 Drewry Park,Des Moines,Iowa,50936,515-911-1526,2261440
"Goodwin, Ratke and Borer",11 Park Meadow Park,Portland,Oregon,97232,503-530-3301,5392261
Bednar and Sons,1896 Bultman Plaza,Evansville,Indiana,47725,812-635-8696,9961400
"Macejkovic, Grady and Treutel",02720 Jenifer Road,Phoenix,Arizona,85067,602-703-1322,2189768
Tremblay-Kuphal,930 Hudson Lane,New Castle,Pennsylvania,16107,724-226-7244,4676202
"Pollich, Daugherty and Hodkiewicz",687 Huxley Plaza,Ann Arbor,Michigan,48107,734-851-3082,4255011
Feest-Muller,39 Nancy Hill,Los Angeles,California,90010,949-976-2254,7162370
Hills LLC,21127 Toban Plaza,Salt Lake City,Utah,84125,801-311-6453,1959864
Hahn-Olson,931 Killdeer Road,New York City,New York,10184,212-756-1308,2010722
Wolf-Graham,9 Victoria Pass,Orange,California,92668,858-821-0827,8290183
Schneider Inc,59 Blaine Hill,Sacramento,California,95828,916-267-9078,8040159
"Adams, Reichert and Sporer",4 Eastlawn Pass,Baltimore,Maryland,21229,410-574-0628,4390830
"Hirthe, Kuhic and Hauck",79 Bonner Crossing,Dayton,Ohio,45419,513-872-0681,7157241
Kuphal and Sons,159 Prairie Rose Junction,Richmond,Virginia,23228,804-288-3518,4725862
"Schinner, McGlynn and Beer",078 Dixon Junction,Decatur,Georgia,30089,678-465-8356,7029057
Williamson and Sons,0 Derek Park,Tulsa,Oklahoma,74184,918-893-2937,9690742
Flatley-Rath,56899 Warrior Circle,Albany,Georgia,31704,229-817-5318,3000359
"Wehner, Tromp and Bauch",01 Del Sol Alley,Charlotte,North Carolina,28289,704-326-7811,5647288
"Parisian, Schmidt and Abshire",49 Golf Course Hill,Seattle,Washington,98104,425-462-8704,6050442
Johns-Sporer,26 Northland Pass,Washington,District of Columbia,20599,202-953-8692,9574042
Hagenes LLC,70 Blackbird Alley,Denver,Colorado,80270,303-284-5205,6637505
Corkery LLC,627 Farragut Trail,Murfreesboro,Tennessee,37131,615-721-4654,6490648
Rowe LLC,5 Fisk Trail,Chesapeake,Virginia,23324,757-842-0552,8908429
Grady-Bins,5889 Manitowish Trail,Columbus,Ohio,43215,614-777-9076,4059100
Nicolas-Wiza,3 Bobwhite Park,Aurora,Colorado,80045,303-806-2897,4219509
Braun Inc,88644 Calypso Park,San Antonio,Texas,78205,210-935-6614,7299363
Kovacek Inc,347 Derek Pass,Phoenix,Arizona,85099,602-930-3974,2249245
Gutkowski-Lubowitz,1319 Daystar Point,Des Moines,Iowa,50362,515-703-5658,3687016
Cormier Inc,92992 Sheridan Pass,Saint Paul,Minnesota,55127,651-205-4181,7753720
Corwin Group,0883 Delladonna Hill,Indianapolis,Indiana,46231,317-653-7505,3910377
Batz-Olson,210 Burning Wood Trail,North Port,Florida,34290,941-275-2077,6969857
Heller Inc,770 Walton Drive,Albuquerque,New Mexico,87180,505-166-6594,2700248
Dickens and Sons,69 Waubesa Plaza,New York City,New York,10292,212-305-7083,3860963
"Armstrong, Altenwerth and Thompson",2795 Ronald Regan Street,Santa Monica,California,90410,310-770-0679,9527965
Beatty-Ebert,2 Rockefeller Center,El Paso,Texas,88569,915-653-5672,9268359
Crist-Prosacco,89864 Grim Park,Redwood City,California,94064,650-162-6940,2452721
Lakin Group,725 North Park,Salt Lake City,Utah,84170,801-727-2229,4740901
Jacobs-Welch,6 Almo Junction,New York City,New York,10029,646-595-9976,7456762
Jacobi-Swift,78 Carpenter Road,Springfield,Missouri,65810,417-497-5425,5792107
"Stiedemann, Stanton and Kemmer",65187 Sutteridge Terrace,Mobile,Alabama,36616,251-345-2407,9002140
"Kshlerin, Roberts and Lockman",826 Dunning Road,Sacramento,California,94291,916-695-5822,9816961
Wunsch-Lesch,3713 Prairie Rose Avenue,Decatur,Georgia,30089,678-539-5287,2363205
Gaylord-VonRueden,7374 Forest Dale Court,Kalamazoo,Michigan,49006,269-594-5251,1486155
"Mitchell, McCullough and Erdman",283 Truax Junction,Clearwater,Florida,34615,727-499-5929,7469487
"Kling, Bayer and Lynch",89 Carey Street,Lansing,Michigan,48930,517-957-4985,9064756
Moen-Koelpin,858 Kingsford Avenue,Lancaster,Pennsylvania,17622,717-954-9203,9365517
"Kshlerin, Kiehn and Harvey",90 Merchant Park,Spokane,Washington,99215,509-222-2505,7484563
Lubowitz-Rogahn,082 Prairieview Point,Memphis,Tennessee,38161,901-920-1724,6236859
"Cassin, Gibson and Kihn",59977 Johnson Avenue,Bonita Springs,Florida,34135,941-814-3225,4358282
Brakus and Sons,2 2nd Street,Kansas City,Missouri,64149,816-965-4962,5077893
Gleason-Stanton,89651 Eagan Crossing,Chesapeake,Virginia,23324,757-645-9113,2783348
Gislason LLC,08636 Helena Hill,Tampa,Florida,33605,813-739-8437,4548679
Hackett and Sons,591 Drewry Center,Washington,District of Columbia,20210,202-860-9211,1170724
"Krajcik, Pacocha and Frami",374 Tony Center,Pensacola,Florida,32575,850-986-6229,563699
"Renner, Altenwerth and Hoeger",77 Barnett Terrace,El Paso,Texas,79955,915-886-5995,1385899
Grant Group,709 Moulton Parkway,Tulsa,Oklahoma,74170,918-332-9370,1621616
"Ritchie, Kozey and Schamberger",78 Arapahoe Junction,Warren,Michigan,48092,810-841-8558,3719783
"Rolfson, Metz and Thiel",44 Dwight Drive,Orlando,Florida,32825,321-657-5729,202626
Renner-Mayert,7 Carpenter Place,Columbus,Ohio,43240,614-482-3966,7744166
McClure Group,674 Rutledge Court,Littleton,Colorado,80161,303-116-1247,7659125
Gaylord Inc,3019 Menomonie Place,Minneapolis,Minnesota,55423,763-765-9972,7725593
Emard-Johnston,214 Sage Place,Springfield,Illinois,62718,217-258-9958,5602043
Hamill-Ratke,6 Marquette Avenue,Santa Barbara,California,93150,805-592-9839,5928157
Johns and Sons,565 Stoughton Road,Honolulu,Hawaii,96825,808-444-1271,4497507
Hagenes-Ward,28678 Carberry Hill,Portland,Oregon,97286,503-792-5582,6436911
"Gulgowski, Flatley and Hermann",3150 Comanche Street,Roanoke,Virginia,24048,540-233-6321,9607151
Spencer and Sons,74 Hagan Pass,Anderson,Indiana,46015,765-916-7391,1352817
Mann and Sons,3 Lighthouse Bay Avenue,Houston,Texas,77288,713-559-5784,5469138
"O'Keefe, Shields and Goyette",4768 Shopko Road,Tampa,Florida,33633,813-505-7179,4208026
"Predovic, Heidenreich and Paucek",35865 Dexter Street,Mc Keesport,Pennsylvania,15134,412-316-4420,5609122
Toy-Wunsch,088 Clarendon Parkway,Sacramento,California,95833,916-528-4622,5550310
Thompson-Bosco,8576 Huxley Lane,Washington,District of Columbia,20057,202-914-8416,1092089
Tillman LLC,55 Straubel Lane,Austin,Texas,78759,512-659-4531,1386815
Ziemann-Gorczany,844 Old Shore Point,Seminole,Florida,34642,941-642-7730,8015892
Jaskolski-Schumm,9 Forest Dale Park,Fort Worth,Texas,76178,682-473-2611,310989
"Yundt, Luettgen and Mann",346 Dayton Avenue,Fort Worth,Texas,76178,682-223-2827,3547271
Cummerata Inc,7912 Valley Edge Drive,Muncie,Indiana,47306,765-414-9351,9531222
Fahey-Smitham,5203 Farmco Point,Peoria,Illinois,61605,309-811-9024,3491707
"Macejkovic, Erdman and Kutch",44009 Caliangt Terrace,Huntington,West Virginia,25711,304-551-5309,5027330
Franecki Group,120 Buell Hill,Salt Lake City,Utah,84140,801-892-6116,3272576
"Marks, Windler and Kulas",28365 Pine View Court,Henderson,Nevada,89074,702-360-0662,2083410
Grimes Group,474 Anzinger Avenue,Toledo,Ohio,43615,419-838-3394,301507
Pagac-Lynch,498 Linden Way,Saint Paul,Minnesota,55123,651-193-6617,2575388
Waelchi-Jast,278 Village Green Circle,Arlington,Texas,76096,817-361-3857,8754453
"Welch, Auer and Feil",899 Ludington Crossing,Tucson,Arizona,85715,520-337-1283,2726868
Glover-Kuhic,87 Elgar Crossing,North Hollywood,California,91616,213-408-8662,6058201
Ward-Senger,8 Ramsey Terrace,Salt Lake City,Utah,84105,435-405-8883,4949884
Spinka-Tillman,76 Hovde Plaza,West Hartford,Connecticut,6127,860-983-2391,2170119
Rutherford LLC,4 Cody Street,Pensacola,Florida,32505,850-908-9914,2017595
Stiedemann and Sons,10232 Stephen Lane,Newark,Delaware,19714,302-476-0213,6585477
Runolfsdottir Group,85125 Walton Center,Springfield,Illinois,62764,217-842-0117,5460887
